{"type":"FeatureCollection","licence":"Data © OpenStreetMap contributors, ODbL 1.0. http://osm.org/copyright","features":[{"type":"Feature","properties":{"place_id":209965507,"osm_type":"relation","osm_id":1380231,"place_rank":16,"category":"boundary","type":"administrative","importance":0.448964384003649,"addresstype":"city","name":"מועצה אזורית עמק הירדן","display_name":"מועצה אזורית עמק הירדן, נפת כנרת, מחוז הצפון, ישראל","address":{"city":"מועצה אזורית עמק הירדן","state_district":"נפת כנרת","state":"מחוז הצפון","ISO3166-2-lvl4":"IL-Z","country":"ישראל","country_code":"il"}},"bbox":[35.4311867,32.6053200,35.6751524,32.9600757],"geometry":{"type":"MultiPolygon","coordinates":[[[[35.4311867,32.8490373],[35.4324458,32.847516],[35.4333869,32.8473266],[35.4345236,32.8465814],[35.4352647,32.8449601],[35.4369552,32.8423407],[35.4374918,32.8420441],[35.4417909,32.8410757],[35.4424256,32.841121],[35.4427026,32.8412363],[35.4429731,32.8410696],[35.4431485,32.8412938],[35.4432405,32.8413448],[35.4433854,32.8414914],[35.4439577,32.8418425],[35.4447713,32.8417999],[35.4449072,32.8417508],[35.4460952,32.8418437],[35.446068,32.8414978],[35.4463572,32.8411106],[35.4463116,32.8402313],[35.4466713,32.8402338],[35.4503779,32.8389885],[35.4506169,32.8393283],[35.4508797,32.8393618],[35.4515559,32.8396276],[35.4518416,32.8396795],[35.452194,32.8397825],[35.4527118,32.8400339],[35.4535171,32.8405312],[35.4548302,32.8403893],[35.4560515,32.8399577],[35.4563799,32.8404278],[35.4564612,32.8409016],[35.4560156,32.8409904],[35.4552711,32.8413168],[35.4549581,32.8417412],[35.4567303,32.8423086],[35.4592717,32.8432279],[35.4596849,32.8435252],[35.4599137,32.8436451],[35.460204,32.8434385],[35.462,32.8434881],[35.4639183,32.8440943],[35.4652116,32.845435],[35.4672948,32.8466279],[35.4678061,32.8468053],[35.4680624,32.8469335],[35.4686524,32.8470921],[35.4696754,32.8475077],[35.4703904,32.8476707],[35.4705951,32.8480349],[35.4706581,32.8483495],[35.4709674,32.8486583],[35.4712527,32.8485627],[35.4715965,32.848675],[35.4720652,32.8486633],[35.4721989,32.8487221],[35.4722374,32.8487683],[35.4722707,32.8489163],[35.4725824,32.8487445],[35.4729511,32.8485948],[35.4734332,32.8498198],[35.4730554,32.8498826],[35.472909,32.8503345],[35.4734706,32.8514932],[35.4731913,32.8517239],[35.4731503,32.852412],[35.4722686,32.8528385],[35.4718044,32.8535327],[35.4717541,32.8541896],[35.4709949,32.8544916],[35.4701438,32.8545948],[35.4687749,32.855006],[35.4672326,32.8552629],[35.4659921,32.8558691],[35.4653273,32.8560043],[35.4648388,32.856056],[35.464006,32.8560851],[35.4631825,32.8560059],[35.4624419,32.8560306],[35.4620572,32.8560091],[35.4614972,32.8560362],[35.4615564,32.8563328],[35.4609741,32.8561951],[35.4603265,32.8555581],[35.4594114,32.8555995],[35.4585067,32.8551769],[35.4576684,32.8551381],[35.4539697,32.8546273],[35.4528399,32.8546098],[35.4526617,32.8552704],[35.4523022,32.8552086],[35.4521216,32.8555383],[35.4519867,32.8563287],[35.4518024,32.8561386],[35.4515931,32.8560175],[35.4514604,32.856013],[35.4510099,32.8558939],[35.4501445,32.855793],[35.4497607,32.8554967],[35.4491178,32.8552994],[35.4488435,32.8553033],[35.4487371,32.8553486],[35.4485399,32.8553737],[35.4482216,32.8552631],[35.448035,32.8551259],[35.4471099,32.8551071],[35.4463468,32.8546673],[35.4458506,32.8545094],[35.4456579,32.8545157],[35.4454607,32.8544284],[35.4454852,32.8543171],[35.4455415,32.8542674],[35.4442308,32.8540543],[35.4446389,32.8528458],[35.4443819,32.85209],[35.4434636,32.8520986],[35.4423189,32.8519768],[35.4407869,32.8516472],[35.4399416,32.851651],[35.4383243,32.8515425],[35.4378782,32.851793],[35.4364258,32.85136],[35.4356787,32.8510729],[35.4340871,32.8499763],[35.4330984,32.849572],[35.4326018,32.8492587],[35.4320586,32.8490951],[35.4313257,32.8490844],[35.4311867,32.8490373]]],[[[35.4635485,32.6526758],[35.4635977,32.6524288],[35.4636397,32.6523583],[35.4641337,32.6519205],[35.4643738,32.651663],[35.4647394,32.6514312],[35.4649728,32.6512306],[35.4653238,32.6511138],[35.4655989,32.6511566],[35.46588,32.6512738],[35.4660222,32.651371],[35.467695,32.6522811],[35.4683078,32.6524382],[35.4686836,32.6524441],[35.4697636,32.6525901],[35.4700107,32.6525839],[35.4703322,32.6525128],[35.4705421,32.6524036],[35.4706063,32.6522778],[35.4706265,32.6520636],[35.4705809,32.6517653],[35.4705788,32.6517515],[35.4704907,32.651511],[35.4702908,32.6512251],[35.4699912,32.651051],[35.4695679,32.6509573],[35.4692137,32.6509225],[35.4689243,32.6508228],[35.4686998,32.6506581],[35.4685816,32.650429],[35.4685407,32.6502578],[35.4685401,32.6501496],[35.4687285,32.6492159],[35.4688093,32.6490523],[35.4690919,32.6487609],[35.4694393,32.6485415],[35.4697445,32.6483881],[35.4699333,32.6481983],[35.470116,32.6478294],[35.4701867,32.6475153],[35.4701631,32.6472882],[35.4701338,32.6471968],[35.4700918,32.6471109],[35.4699935,32.6469939],[35.469761,32.6468794],[35.4692921,32.6468567],[35.467966,32.6471909],[35.4675803,32.6472368],[35.4673229,32.6472226],[35.4670114,32.6471393],[35.4667202,32.6469224],[35.4665882,32.6467592],[35.4665136,32.6465931],[35.4664797,32.6463869],[35.4666653,32.6456832],[35.4668717,32.6454945],[35.4671762,32.6452888],[35.4675755,32.6451628],[35.4677482,32.6451371],[35.4680494,32.6451427],[35.4693791,32.6452723],[35.4699111,32.6451996],[35.4701955,32.6451967],[35.4703498,32.6451496],[35.4707297,32.6449482],[35.4709919,32.6447487],[35.4711292,32.64451],[35.4712002,32.64417],[35.4712237,32.6439722],[35.4712165,32.6433489],[35.4712706,32.6431053],[35.4713719,32.6428909],[35.4716492,32.6424648],[35.4716795,32.6423475],[35.4716794,32.6420753],[35.471642,32.6419041],[35.4715032,32.6416265],[35.4710931,32.6410999],[35.4709508,32.6408252],[35.4708553,32.6405453],[35.4708429,32.6403841],[35.4708763,32.6400166],[35.4709454,32.639795],[35.471111,32.6394486],[35.46982,32.6383901],[35.4694242,32.6373167],[35.4693067,32.6373209],[35.469146,32.6372305],[35.469033,32.6370657],[35.4689213,32.6370698],[35.4687689,32.6369997],[35.4686478,32.6368348],[35.4683606,32.6369572],[35.4682359,32.636887],[35.4682094,32.6368324],[35.4682227,32.6367281],[35.4679973,32.6366158],[35.4679328,32.636545],[35.4678821,32.6364081],[35.4678648,32.6361715],[35.4676941,32.6361233],[35.4676042,32.6360565],[35.4676223,32.6359482],[35.4673666,32.635663],[35.4672703,32.6356153],[35.4672789,32.6353363],[35.4666711,32.6340915],[35.466582,32.6333563],[35.4666224,32.6332051],[35.4668012,32.6328976],[35.4667909,32.6326187],[35.4669351,32.6322453],[35.4672333,32.6319955],[35.4675974,32.6322061],[35.4683958,32.6325623],[35.4693563,32.6322441],[35.4704501,32.6326983],[35.4714126,32.6326551],[35.4803104,32.6277063],[35.4805065,32.6267269],[35.4816432,32.6258593],[35.4816455,32.6257784],[35.4816112,32.6257194],[35.4812619,32.6256417],[35.481248,32.6255402],[35.4812847,32.62539],[35.4812338,32.6251589],[35.4810874,32.6249624],[35.4807779,32.6250698],[35.4806719,32.6250633],[35.4806306,32.6250152],[35.4806051,32.6249618],[35.4806779,32.6248227],[35.4809053,32.6243884],[35.4813218,32.6243431],[35.4818103,32.6240608],[35.4823268,32.6238495],[35.4840942,32.6231746],[35.4848643,32.6229315],[35.4849333,32.6227261],[35.4860718,32.622642],[35.4873713,32.6226275],[35.4877061,32.6234044],[35.4879653,32.6237217],[35.4886571,32.6239108],[35.4891767,32.6239711],[35.4896258,32.6240616],[35.4899218,32.6238048],[35.4899825,32.6237809],[35.490542,32.6244032],[35.4908783,32.6241659],[35.4918134,32.6243026],[35.4918978,32.6242621],[35.4923781,32.6242096],[35.4932996,32.6239784],[35.4933029,32.6237647],[35.4930995,32.6233682],[35.4931627,32.6228229],[35.4931446,32.6228028],[35.4931901,32.6227694],[35.4932919,32.6228655],[35.4934423,32.6231481],[35.493619,32.6232151],[35.4938778,32.6234163],[35.494081,32.6234533],[35.4944062,32.6233363],[35.4946163,32.6231564],[35.4951093,32.6228649],[35.495324,32.6228541],[35.4956925,32.6225927],[35.4952381,32.6220349],[35.4950334,32.6219197],[35.4949343,32.6218153],[35.4949204,32.6216932],[35.4948412,32.6216132],[35.4947521,32.6214207],[35.4969285,32.6219816],[35.4977388,32.621875],[35.4984771,32.6206418],[35.5008223,32.6178572],[35.5022983,32.6170974],[35.5024308,32.6172955],[35.5026632,32.6174533],[35.5027534,32.6176886],[35.5029095,32.6177074],[35.5031444,32.6179244],[35.5032187,32.6182714],[35.5034701,32.6182781],[35.5035908,32.6182536],[35.5036896,32.6183142],[35.503822,32.6186633],[35.5039364,32.6187476],[35.5044363,32.6188659],[35.5049019,32.6187622],[35.5051359,32.618769],[35.5051878,32.6187097],[35.5052116,32.6187248],[35.5051777,32.6184268],[35.5074426,32.6177157],[35.5093382,32.6168415],[35.5100502,32.6157296],[35.511395,32.615467],[35.5116846,32.6153543],[35.5143727,32.614283],[35.5164749,32.6135838],[35.5188506,32.6127953],[35.5235833,32.6122462],[35.5250025,32.6123531],[35.5257225,32.6126838],[35.5291897,32.612171],[35.5318495,32.6106836],[35.5332247,32.6098115],[35.5328972,32.6085252],[35.5325784,32.6084883],[35.5324324,32.6083348],[35.5324723,32.6082109],[35.5322252,32.6078978],[35.5322111,32.6075524],[35.5318901,32.6069238],[35.5307382,32.6060901],[35.530302,32.6056535],[35.5337695,32.60532],[35.535868,32.6060596],[35.5372969,32.607197],[35.5378476,32.606641],[35.5396665,32.6067489],[35.5404357,32.6071943],[35.540999,32.6075529],[35.5410034,32.6075794],[35.5403017,32.6087508],[35.5399062,32.6093159],[35.5398207,32.6098122],[35.5397937,32.6107127],[35.5399782,32.6118806],[35.5406908,32.6148831],[35.5413437,32.6154354],[35.5427607,32.6162377],[35.546334,32.620536],[35.5474497,32.6221347],[35.5482559,32.6237402],[35.5486331,32.6245962],[35.5503362,32.6252648],[35.5510843,32.6253341],[35.551893,32.6254951],[35.552681,32.6256717],[35.5531907,32.625898],[35.5532023,32.6259808],[35.553322,32.6261157],[35.5533915,32.626244],[35.5534124,32.6264096],[35.5535881,32.6267185],[35.5536979,32.6270884],[35.5540604,32.6273358],[35.5537873,32.6275274],[35.5535963,32.6281274],[35.5536157,32.6289858],[35.5537814,32.6301707],[35.5551474,32.6309355],[35.5551996,32.6313884],[35.5550476,32.6315703],[35.5548871,32.6316316],[35.5547389,32.6316506],[35.5545557,32.6316196],[35.5542325,32.6312496],[35.5541651,32.6312228],[35.5540086,32.6312773],[35.5535535,32.6309996],[35.553246,32.6309762],[35.5531227,32.6310983],[35.5528608,32.6311677],[35.5527379,32.6312633],[35.5521268,32.6316032],[35.5530874,32.6329784],[35.5538735,32.6347346],[35.5539733,32.6350415],[35.5539352,32.63571],[35.5534906,32.6364225],[35.5535636,32.6374223],[35.5544118,32.6375361],[35.5547785,32.6375483],[35.5546634,32.6381237],[35.5547982,32.6385082],[35.5549639,32.6391201],[35.5549958,32.6403909],[35.5553126,32.641407],[35.5557938,32.6437194],[35.5564474,32.6443795],[35.5560648,32.6450431],[35.5552087,32.6457605],[35.5558351,32.646888],[35.5558523,32.6469816],[35.5562153,32.6472727],[35.5564973,32.6476418],[35.5567618,32.6477763],[35.5570291,32.648089],[35.5566528,32.6488041],[35.5565106,32.6493298],[35.5566506,32.6499041],[35.5566944,32.6505964],[35.5564342,32.6509075],[35.5568085,32.6515263],[35.5574863,32.6524413],[35.5579654,32.6530227],[35.5580204,32.6537031],[35.5576889,32.6537291],[35.5573096,32.6539891],[35.5569355,32.6538743],[35.556681,32.654882],[35.5564693,32.6548036],[35.5562572,32.6546367],[35.5559699,32.65427],[35.555275,32.6537764],[35.5550603,32.653496],[35.5551276,32.6531662],[35.5550246,32.6531465],[35.5545878,32.6533326],[35.5535949,32.6533525],[35.5535419,32.6532882],[35.5535301,32.6531874],[35.5536397,32.6530644],[35.5532093,32.652871],[35.5530178,32.6528499],[35.5527337,32.6526472],[35.5522889,32.6526152],[35.5516206,32.652172],[35.5512492,32.6523542],[35.5509244,32.652421],[35.5508311,32.6523768],[35.5506558,32.6520823],[35.5497516,32.6520298],[35.5491879,32.6523416],[35.5484825,32.6529582],[35.548209,32.6528855],[35.5480793,32.6531139],[35.5479631,32.6531395],[35.5476461,32.6529949],[35.5472566,32.6532725],[35.5472125,32.6534136],[35.5469709,32.6535582],[35.5466946,32.6535342],[35.5465011,32.6537245],[35.5464609,32.6538934],[35.5462551,32.6539175],[35.5461015,32.6539978],[35.5448665,32.6552825],[35.5449726,32.6557252],[35.5451906,32.6569447],[35.5397659,32.6553436],[35.5397343,32.655384],[35.5394296,32.6553842],[35.539092,32.6556444],[35.5390608,32.6558068],[35.538838,32.6558491],[35.5387985,32.655981],[35.5384757,32.6560997],[35.5382984,32.6562027],[35.5379521,32.6564936],[35.5378653,32.6566198],[35.537869,32.6567339],[35.53771,32.6567929],[35.5375476,32.6569749],[35.5374192,32.6570073],[35.5373349,32.6572256],[35.5370748,32.6572168],[35.5371131,32.6575559],[35.537073,32.6576124],[35.5368286,32.6576919],[35.536815,32.6578413],[35.5367663,32.6579164],[35.5365636,32.658073],[35.5363365,32.6581926],[35.5362784,32.6583418],[35.5361889,32.6583874],[35.5360925,32.658364],[35.5358594,32.6583736],[35.5357518,32.6585083],[35.5354978,32.6586237],[35.5354448,32.6587342],[35.5354604,32.65888],[35.535295,32.6590874],[35.5351819,32.6594517],[35.5351791,32.6595702],[35.5353135,32.659644],[35.5354499,32.6598175],[35.5355277,32.660059],[35.535807,32.6602975],[35.5357511,32.6605997],[35.5357595,32.6608578],[35.5358325,32.6610628],[35.5353255,32.6616835],[35.5342535,32.6623451],[35.5336382,32.6629245],[35.53337,32.663177],[35.5329903,32.6642598],[35.5321562,32.6646991],[35.5322013,32.6650894],[35.5318674,32.6653973],[35.5314919,32.665893],[35.5314592,32.6659362],[35.5315507,32.6661525],[35.5315535,32.6661822],[35.5315088,32.6662934],[35.5312238,32.6666148],[35.5311517,32.6667967],[35.5311024,32.6668425],[35.5312529,32.6670599],[35.5316406,32.6674176],[35.5325587,32.668722],[35.5331227,32.6685165],[35.5334091,32.6685757],[35.5337408,32.6685415],[35.5339199,32.6684092],[35.5342773,32.6683685],[35.5343935,32.6683848],[35.5345614,32.668324],[35.5347978,32.6683024],[35.5349593,32.6683167],[35.5350306,32.6682178],[35.5350819,32.6682249],[35.5355298,32.6682873],[35.5356496,32.6682562],[35.5359624,32.6683049],[35.5361179,32.6683907],[35.5364955,32.6685205],[35.5368175,32.6688396],[35.5371719,32.669027],[35.5372741,32.6693711],[35.5372765,32.6695647],[35.537374,32.6697073],[35.5374098,32.6701047],[35.5375198,32.6702778],[35.5376188,32.6703123],[35.5376719,32.6704282],[35.5377823,32.6704766],[35.537811,32.6706028],[35.5382944,32.6706467],[35.5384228,32.6706913],[35.5385917,32.6706892],[35.5390349,32.670786],[35.5390823,32.6708668],[35.5390652,32.6708895],[35.5369598,32.671365],[35.5364001,32.6718334],[35.5363157,32.6719901],[35.5336027,32.6770257],[35.53037,32.6763648],[35.5303822,32.6762324],[35.530329,32.6760178],[35.5302112,32.6757882],[35.5302252,32.6752607],[35.528502,32.6752809],[35.5277911,32.6750552],[35.5277335,32.6750578],[35.527737,32.6740824],[35.5265129,32.6725331],[35.5265443,32.6710722],[35.5264434,32.6708059],[35.526312,32.670259],[35.5260888,32.6699468],[35.5259607,32.6695599],[35.52591,32.669546],[35.5258266,32.6696248],[35.5255807,32.6696187],[35.525293,32.6696702],[35.5247314,32.6696294],[35.5242949,32.6694834],[35.5240073,32.668742],[35.5234113,32.6683995],[35.5230283,32.6680961],[35.5230333,32.6681902],[35.5231209,32.6682115],[35.523502,32.6685748],[35.5235066,32.6687032],[35.5234508,32.6689666],[35.5233354,32.6692785],[35.52302,32.6699996],[35.5228437,32.670297],[35.5227792,32.6704719],[35.5225555,32.6707689],[35.5224675,32.6707663],[35.522261,32.6708807],[35.5216107,32.6713433],[35.5208759,32.6717577],[35.5207439,32.6717434],[35.5205307,32.6718459],[35.5199241,32.6724956],[35.5198326,32.6725381],[35.5196599,32.6727324],[35.5195049,32.6728393],[35.5193073,32.6733532],[35.5190931,32.6741405],[35.5189473,32.6743978],[35.5186885,32.674558],[35.5187226,32.6747602],[35.518699,32.6747711],[35.5140373,32.6769261],[35.5118709,32.6779002],[35.5115082,32.6784807],[35.5108236,32.6790781],[35.5103856,32.6796876],[35.5093475,32.6806734],[35.509214,32.6807952],[35.5090591,32.680736],[35.5086849,32.6804203],[35.508564,32.6802094],[35.5084819,32.6802074],[35.5083769,32.6802425],[35.5081201,32.6802307],[35.5078425,32.6802928],[35.50763,32.6803815],[35.5075586,32.6803642],[35.5075036,32.6801958],[35.5070489,32.6800397],[35.5068471,32.6799145],[35.5065851,32.6795847],[35.5065541,32.6794937],[35.506054,32.6791105],[35.5059981,32.6790966],[35.5058885,32.6789796],[35.5057857,32.6787712],[35.5057163,32.6786938],[35.5053064,32.6784033],[35.5053431,32.6777808],[35.5056152,32.6772152],[35.5050233,32.6769596],[35.504868,32.6766824],[35.5042645,32.6760816],[35.5035101,32.6759963],[35.5030854,32.6760825],[35.5026624,32.676087],[35.5024436,32.6761439],[35.5023148,32.6761099],[35.5017221,32.6760772],[35.5016469,32.6759863],[35.5015223,32.6759983],[35.5014909,32.6759803],[35.5001319,32.6746763],[35.4999474,32.6742596],[35.4998924,32.6740561],[35.4998392,32.673568],[35.4999256,32.6733172],[35.4999585,32.6730605],[35.5002096,32.6727391],[35.5002796,32.6723975],[35.5003102,32.6723793],[35.5002906,32.6723536],[35.5003605,32.6720225],[35.5003346,32.6716844],[35.5004282,32.6715925],[35.5004463,32.6714717],[35.5006312,32.6713763],[35.5006707,32.6712823],[35.5002335,32.6710753],[35.5000153,32.670879],[35.4996774,32.6707017],[35.4995843,32.6706831],[35.4993935,32.6705592],[35.4992346,32.6703967],[35.4993293,32.6700014],[35.4996353,32.6700128],[35.4993231,32.6698481],[35.4991344,32.669673],[35.4989786,32.669663],[35.4988273,32.6695686],[35.4986249,32.6696111],[35.4985079,32.6695445],[35.4984583,32.6694404],[35.4983151,32.6694447],[35.4981793,32.6694018],[35.4980247,32.6694111],[35.4976624,32.6692374],[35.4975242,32.6692535],[35.4972352,32.6691653],[35.4969101,32.6691376],[35.4967459,32.6692223],[35.4964689,32.6691178],[35.4964709,32.6690094],[35.4969529,32.6678094],[35.4971302,32.6672194],[35.4962943,32.6670044],[35.4963406,32.6666847],[35.495887,32.6666523],[35.4957963,32.6657736],[35.4950105,32.6657275],[35.4934665,32.6657801],[35.4922419,32.6657116],[35.4911533,32.6647964],[35.4900021,32.6642862],[35.4836056,32.6594794],[35.4810972,32.6577466],[35.4800906,32.6571203],[35.4798004,32.6568804],[35.4797052,32.6569482],[35.4794745,32.6569887],[35.47881,32.6573075],[35.4787184,32.6574587],[35.4783388,32.6574449],[35.4781579,32.657385],[35.4780034,32.6576288],[35.4775799,32.6578518],[35.4769527,32.6584928],[35.4764402,32.6586399],[35.4760427,32.6588436],[35.475382,32.6587836],[35.4749136,32.6587869],[35.4746833,32.6587496],[35.474179,32.6586369],[35.4733975,32.658399],[35.4727166,32.6582928],[35.4720844,32.6578061],[35.4720844,32.6577199],[35.4720397,32.6576919],[35.4719642,32.6575221],[35.4717796,32.6573183],[35.4714091,32.6569513],[35.4712189,32.656855],[35.4709335,32.6566006],[35.4707395,32.6564721],[35.4705146,32.6561542],[35.4697699,32.6558901],[35.4694119,32.6554827],[35.4682046,32.6546716],[35.4680577,32.6546065],[35.468035,32.6545102],[35.4676973,32.65445],[35.4666299,32.6545736],[35.4659421,32.6546907],[35.465139,32.6544255],[35.4649687,32.6542055],[35.4647351,32.6540131],[35.4639131,32.6536331],[35.4637659,32.6536337],[35.4635621,32.6530133],[35.4635485,32.6526758]]],[[[35.467892,32.8922734],[35.4688975,32.8919211],[35.4701493,32.8916884],[35.4701374,32.8916307],[35.4713277,32.8913861],[35.4724264,32.8909971],[35.4726849,32.8907864],[35.4733123,32.8896481],[35.4728414,32.8889528],[35.4738931,32.8886504],[35.4744341,32.8887741],[35.4753483,32.8886543],[35.4753597,32.8887231],[35.477089,32.8884141],[35.4784254,32.887944],[35.4787394,32.8873967],[35.4787944,32.8873955],[35.4784761,32.8871234],[35.4778889,32.886759],[35.4773402,32.8865044],[35.4766865,32.8862394],[35.4768091,32.8852957],[35.4765582,32.8843766],[35.4764989,32.8837641],[35.4759999,32.8828407],[35.476165,32.8828104],[35.4758587,32.8818756],[35.4757633,32.8809213],[35.4757788,32.8807726],[35.4749372,32.880336],[35.4742162,32.8800642],[35.4739655,32.8800314],[35.4738007,32.8799589],[35.4739979,32.8785269],[35.4763655,32.8784366],[35.4764588,32.8780405],[35.4770926,32.8780447],[35.4773333,32.8776826],[35.4776623,32.877364],[35.4790266,32.8766792],[35.4787421,32.8753617],[35.4792687,32.8752225],[35.4794346,32.8751543],[35.4792198,32.8728217],[35.4795267,32.8728586],[35.4800667,32.8723757],[35.4805285,32.8721938],[35.4815408,32.8716325],[35.4817356,32.8714368],[35.4820663,32.8721195],[35.4827499,32.8721153],[35.4839678,32.8723406],[35.4849171,32.8723874],[35.4853945,32.8723807],[35.4865723,32.872279],[35.4865034,32.8721174],[35.4868625,32.8711478],[35.4872855,32.8698785],[35.4859504,32.8698069],[35.4859394,32.8681411],[35.4870436,32.8679826],[35.4886506,32.8672442],[35.4898708,32.8667138],[35.4904869,32.8674473],[35.4960431,32.8661307],[35.4970229,32.8666215],[35.4983309,32.8663031],[35.4986454,32.8658239],[35.5018889,32.8651462],[35.5031207,32.8649252],[35.5032967,32.8627335],[35.5014441,32.8621153],[35.4993277,32.8590437],[35.4982835,32.8580467],[35.497208,32.8580637],[35.4951871,32.8586329],[35.4951107,32.8592059],[35.4948968,32.8595877],[35.4945378,32.8599754],[35.4932866,32.8609717],[35.4923601,32.8614176],[35.4904893,32.8615417],[35.4901433,32.861528],[35.489567,32.8612786],[35.488978,32.860688],[35.4887605,32.8605177],[35.4863507,32.8605034],[35.4861162,32.8599854],[35.4861659,32.8599613],[35.485962,32.8599677],[35.4858012,32.8598427],[35.485537,32.8595494],[35.485611,32.8594978],[35.48576,32.8592769],[35.4860307,32.8590531],[35.4863016,32.85878],[35.4863385,32.8586161],[35.4857045,32.8577539],[35.4856433,32.8575984],[35.4856282,32.8574512],[35.4856668,32.857335],[35.485797,32.8572442],[35.4860085,32.8571813],[35.4863052,32.8571907],[35.4868081,32.8569777],[35.4872003,32.8569797],[35.4878791,32.8570987],[35.4880902,32.8571781],[35.4886574,32.8575243],[35.4892482,32.857736],[35.4896153,32.8577619],[35.489991,32.8577505],[35.4904926,32.8576314],[35.4906845,32.8573506],[35.4909465,32.8571631],[35.4910081,32.8571669],[35.491525,32.8570501],[35.4917544,32.8569676],[35.4923448,32.8569028],[35.492777,32.8569204],[35.4929279,32.8568172],[35.4931031,32.8565629],[35.49331,32.8563474],[35.4935527,32.8562168],[35.4941316,32.8559753],[35.4943023,32.8559547],[35.4947051,32.8559892],[35.495452,32.856163],[35.4962433,32.8563043],[35.4964451,32.8563155],[35.4969279,32.8561741],[35.4974082,32.8556394],[35.4975902,32.8553277],[35.4977812,32.8551793],[35.4981439,32.8551872],[35.4989095,32.8553595],[35.4990963,32.8553792],[35.4994325,32.8551629],[35.500042,32.8549687],[35.500495,32.85464],[35.5007741,32.8541997],[35.5007684,32.8540918],[35.5002146,32.8536694],[35.5000499,32.8531327],[35.4998412,32.8526254],[35.4991475,32.8518637],[35.4985564,32.8507233],[35.4984436,32.8494249],[35.5023671,32.8482609],[35.5030631,32.8475407],[35.5027869,32.84723],[35.5031766,32.8468881],[35.5034943,32.8468893],[35.5045599,32.8476304],[35.5061699,32.8478699],[35.5067689,32.8474717],[35.507315,32.8468449],[35.5076814,32.8464974],[35.5082661,32.8462401],[35.5095956,32.8457306],[35.5097771,32.8458194],[35.5101584,32.8460059],[35.50981,32.8465004],[35.5088423,32.8473826],[35.5085716,32.8482191],[35.5088751,32.8484591],[35.5089618,32.8485671],[35.5104253,32.847996],[35.5109713,32.8481068],[35.5111365,32.8480799],[35.5113467,32.8480022],[35.5114905,32.8479055],[35.5120599,32.8472424],[35.5121888,32.8472083],[35.5123417,32.8472491],[35.512498,32.8474273],[35.5125368,32.8475957],[35.5128531,32.8483637],[35.5130548,32.8490608],[35.5134022,32.8493699],[35.5144348,32.8492846],[35.5145871,32.8492301],[35.5147016,32.8491751],[35.5148151,32.8490666],[35.5151489,32.8485913],[35.515467,32.8483859],[35.5179079,32.848253],[35.5156309,32.8451293],[35.5157365,32.8448972],[35.5156262,32.8447337],[35.515683,32.8446026],[35.5157461,32.8445763],[35.5158054,32.8444482],[35.5161766,32.8444011],[35.5164965,32.8441586],[35.5171102,32.8440001],[35.5172853,32.8440051],[35.5174833,32.8441134],[35.5179599,32.8440524],[35.5181404,32.8440837],[35.5184022,32.8440277],[35.5187603,32.844223],[35.5192861,32.8437116],[35.5196835,32.8434901],[35.5200257,32.8436525],[35.5203526,32.8437482],[35.5207478,32.84355],[35.5211727,32.8434691],[35.5218702,32.8430314],[35.5222986,32.8427161],[35.5224498,32.8426634],[35.5225852,32.8426709],[35.5243581,32.8432767],[35.5265577,32.8430805],[35.5266273,32.8432725],[35.5267619,32.8434386],[35.5269329,32.8435571],[35.527224,32.8436844],[35.5272091,32.8437329],[35.5268875,32.8440293],[35.5267086,32.8442592],[35.5266014,32.8444925],[35.5265729,32.8447316],[35.5267033,32.8453029],[35.5269884,32.8458232],[35.5270059,32.8461099],[35.5270496,32.8462954],[35.5273813,32.8470436],[35.5275219,32.8472496],[35.5276973,32.8474141],[35.5279547,32.8475732],[35.5282065,32.8476542],[35.528322,32.8477591],[35.5285151,32.848112],[35.5286382,32.8485252],[35.5287318,32.8486673],[35.5288554,32.8487883],[35.5291361,32.8489842],[35.5293559,32.8491018],[35.5295472,32.8491622],[35.5298781,32.8492211],[35.5300208,32.849275],[35.5303567,32.8496745],[35.5306304,32.8498723],[35.5308671,32.8499665],[35.5312803,32.8500569],[35.5318202,32.8506375],[35.5319173,32.8508279],[35.5320133,32.8515448],[35.5321435,32.8519322],[35.5326432,32.8527038],[35.5327951,32.8530337],[35.5331381,32.8534567],[35.5334446,32.8539265],[35.5335346,32.8543634],[35.5335606,32.8546635],[35.5336225,32.8548402],[35.5339623,32.8554611],[35.534235,32.8558731],[35.534367,32.8561715],[35.5346453,32.856584],[35.5348207,32.8568098],[35.5351426,32.8570407],[35.5352377,32.8571828],[35.5353331,32.8574511],[35.5354208,32.8579084],[35.5355409,32.85814],[35.5356179,32.8583654],[35.5356203,32.8588318],[35.5356652,32.8590543],[35.5359362,32.8596981],[35.5365152,32.8606423],[35.5369101,32.8611521],[35.5372237,32.8614654],[35.5373626,32.8616484],[35.5375855,32.8618341],[35.5380073,32.8623067],[35.5384731,32.8627615],[35.5391483,32.8631769],[35.5394829,32.8636328],[35.5396564,32.8638112],[35.5398099,32.8639251],[35.5401065,32.8642669],[35.5406635,32.8650681],[35.5408388,32.8655096],[35.5408643,32.865638],[35.5407011,32.8659255],[35.5406571,32.8662048],[35.5407282,32.8665268],[35.5408847,32.8667713],[35.5410629,32.866926],[35.5414448,32.8671404],[35.5419797,32.8675216],[35.5425013,32.8680295],[35.5426993,32.8681867],[35.5430164,32.868373],[35.5433984,32.8685401],[35.543588,32.8687689],[35.5446013,32.8697228],[35.5450126,32.8701735],[35.5453169,32.8703829],[35.5458533,32.870612],[35.5460782,32.8706597],[35.5463027,32.870676],[35.5467253,32.8706322],[35.5471627,32.8706264],[35.5476945,32.8705111],[35.5481705,32.8704767],[35.5486578,32.8703419],[35.5487309,32.8703426],[35.5490353,32.8705225],[35.5492534,32.8706065],[35.5494582,32.8706444],[35.5498544,32.8706582],[35.5500998,32.8707272],[35.5501975,32.8708083],[35.5503239,32.8711354],[35.5505143,32.8713771],[35.5508093,32.8715989],[35.5511318,32.8717401],[35.5514151,32.8717751],[35.5517627,32.8717454],[35.5520513,32.8719598],[35.5523752,32.8720403],[35.5527359,32.8720402],[35.5535927,32.871973],[35.5541826,32.8719888],[35.555097,32.8721939],[35.5554826,32.8723308],[35.5560349,32.8725856],[35.5564524,32.8726716],[35.5566254,32.8726753],[35.5568223,32.8726342],[35.557314,32.8723903],[35.557445,32.872362],[35.5580257,32.8727788],[35.5583149,32.8729212],[35.5588292,32.8730466],[35.5594406,32.8730328],[35.5598082,32.8731675],[35.5599107,32.8732843],[35.55995,32.8736012],[35.5600451,32.8738052],[35.5602238,32.8739798],[35.5604605,32.8740916],[35.5607208,32.8741328],[35.5612259,32.8741205],[35.5617411,32.8742143],[35.5620313,32.8742955],[35.5622831,32.8744146],[35.5628111,32.8746018],[35.563173,32.8746752],[35.5633772,32.8746703],[35.5636137,32.8746202],[35.5641009,32.8744034],[35.5643369,32.8744095],[35.5647526,32.8746382],[35.5653349,32.8748811],[35.56547,32.8749791],[35.5656655,32.8751814],[35.5656878,32.8752542],[35.5656692,32.8756076],[35.5657509,32.875846],[35.5661728,32.8764155],[35.5666708,32.8768659],[35.5667171,32.8769523],[35.5667309,32.8770366],[35.5666358,32.8772559],[35.5665963,32.8774725],[35.5666105,32.8776766],[35.5666697,32.8778494],[35.5669577,32.8782461],[35.5671338,32.878608],[35.5673799,32.8789623],[35.5676008,32.8792333],[35.5678293,32.8794008],[35.5680595,32.879503],[35.5683541,32.8795766],[35.569189,32.8796861],[35.5699147,32.8795998],[35.5703815,32.8794496],[35.5709376,32.8794389],[35.5712766,32.879398],[35.5716467,32.8794331],[35.5722464,32.8795217],[35.5725692,32.8796194],[35.5732091,32.8797572],[35.573689,32.8797462],[35.5746523,32.8798541],[35.575214,32.8798078],[35.5754735,32.8798358],[35.5760284,32.8799504],[35.5764771,32.8801775],[35.5768569,32.8802879],[35.5771973,32.8804832],[35.5785885,32.8810926],[35.5797763,32.8823785],[35.5800568,32.8826467],[35.5802185,32.8827614],[35.5805805,32.8829129],[35.5814744,32.883104],[35.5818368,32.8832626],[35.582134,32.8834328],[35.5824515,32.8835628],[35.5828032,32.8839857],[35.5828645,32.8841302],[35.5829131,32.884425],[35.5830722,32.8846799],[35.5835136,32.8850522],[35.5840695,32.8853801],[35.5848481,32.8857127],[35.5858729,32.8862194],[35.5866584,32.8864882],[35.5878495,32.886682],[35.5884928,32.8867336],[35.5888643,32.8867889],[35.5894828,32.8868047],[35.590072,32.8868992],[35.5907625,32.8870719],[35.5910152,32.8871723],[35.5915319,32.887479],[35.5918236,32.8876051],[35.5923775,32.8879003],[35.5926449,32.8881847],[35.5926774,32.888397],[35.5926333,32.8885587],[35.5925567,32.8886908],[35.592259,32.8889814],[35.5921352,32.8891589],[35.5920674,32.8893691],[35.5920702,32.8895887],[35.5921435,32.8897931],[35.592291,32.8899985],[35.592605,32.8903044],[35.5928418,32.8904516],[35.5930102,32.8905026],[35.5931994,32.8905203],[35.5933835,32.8905024],[35.5935611,32.8904502],[35.5936832,32.8903887],[35.5938056,32.8902847],[35.5939916,32.8899852],[35.5941323,32.8903495],[35.594232,32.8904675],[35.5943671,32.8905644],[35.594532,32.8906383],[35.5947134,32.890683],[35.5951887,32.8906932],[35.5954495,32.8908556],[35.595648,32.8909289],[35.5958268,32.8909544],[35.5960087,32.8909454],[35.5961949,32.8909015],[35.5964533,32.8908016],[35.596579,32.8907947],[35.5966649,32.8908162],[35.5969682,32.8909804],[35.59723,32.8910539],[35.5977456,32.89107],[35.5983606,32.8911817],[35.5989172,32.8911784],[35.5989435,32.8915713],[35.5993671,32.891579],[35.5997995,32.8917793],[35.6000312,32.8918547],[35.600555,32.892256],[35.6011249,32.8930961],[35.601202,32.8931601],[35.6016577,32.893499],[35.6031971,32.8944043],[35.6034148,32.8944881],[35.6035704,32.8944786],[35.6066772,32.8936774],[35.6078217,32.8934066],[35.6084914,32.8932033],[35.6087309,32.8931619],[35.6098342,32.8927543],[35.610254,32.8926385],[35.6107306,32.89258],[35.6124715,32.8925118],[35.6119762,32.892975],[35.6116459,32.8934432],[35.6115515,32.8936555],[35.6115077,32.8938416],[35.6115326,32.8941379],[35.6116147,32.8943749],[35.6118016,32.8947406],[35.6124626,32.8955182],[35.6128721,32.8954462],[35.6131148,32.8953358],[35.6130804,32.8951995],[35.6133174,32.895155],[35.6147005,32.894792],[35.6158195,32.8944317],[35.6183096,32.8932991],[35.6186629,32.8928562],[35.6190465,32.8926728],[35.6199376,32.8922878],[35.6217065,32.8914254],[35.622208,32.8907525],[35.6238916,32.8893836],[35.6249712,32.888285],[35.625264,32.8877948],[35.6274372,32.8854303],[35.6281132,32.8848509],[35.6287834,32.8843465],[35.6295031,32.8838679],[35.6298118,32.8817946],[35.6300423,32.8814782],[35.6305282,32.8810512],[35.6324109,32.8794775],[35.6330037,32.8789434],[35.6346906,32.8773502],[35.6358004,32.8760514],[35.6374415,32.8738636],[35.6396601,32.8705124],[35.6407889,32.8689908],[35.6412622,32.8684003],[35.6419323,32.8676625],[35.6425187,32.867067],[35.6429401,32.8663256],[35.6433077,32.8655393],[35.6411525,32.8649402],[35.6412471,32.8647451],[35.6412905,32.8645646],[35.6412944,32.8643884],[35.641256,32.8640919],[35.6412696,32.8639811],[35.6413943,32.8637129],[35.6414476,32.8635132],[35.64166,32.8631508],[35.6417009,32.8629883],[35.6417228,32.8626686],[35.6419993,32.8622026],[35.6421073,32.8618944],[35.6421438,32.8617349],[35.6421523,32.8615907],[35.6421362,32.8614491],[35.6419886,32.8609758],[35.6419933,32.8607419],[35.6419782,32.8606206],[35.6419346,32.8604855],[35.6418277,32.8602921],[35.6418203,32.8602518],[35.6418686,32.8602007],[35.6421545,32.860085],[35.6423491,32.8599596],[35.6424814,32.8598282],[35.6427245,32.8595103],[35.6428101,32.8593621],[35.6428564,32.8592121],[35.6428642,32.8590458],[35.6428275,32.8588522],[35.642852,32.8588015],[35.6430787,32.8586822],[35.6432544,32.8585436],[35.6437137,32.8580783],[35.6439983,32.8577045],[35.6440743,32.857667],[35.6443505,32.8575982],[35.6445172,32.8575316],[35.6446899,32.8574229],[35.6448138,32.8572974],[35.645206,32.8566999],[35.6452756,32.8565389],[35.6453715,32.856205],[35.6455479,32.8558484],[35.6456082,32.8557488],[35.6457931,32.8555136],[35.6458767,32.8552853],[35.6460451,32.8550251],[35.6461805,32.8546987],[35.6464332,32.8543347],[35.6464983,32.8541373],[35.6465725,32.8537151],[35.6467295,32.8536192],[35.646844,32.8535213],[35.6469438,32.853401],[35.6470183,32.8532655],[35.6470807,32.8530968],[35.6471473,32.852797],[35.6472737,32.8523932],[35.6474282,32.8513552],[35.6474136,32.8509304],[35.6474243,32.8508462],[35.6475223,32.8505005],[35.6476993,32.8501796],[35.6477766,32.8499155],[35.6479418,32.8496485],[35.6480088,32.8493975],[35.6480155,32.8490889],[35.6479381,32.848574],[35.6478536,32.8483646],[35.647676,32.848111],[35.6477101,32.8480657],[35.6478878,32.8479339],[35.6479981,32.8478251],[35.6480846,32.8477006],[35.6481386,32.8475682],[35.6482287,32.8472611],[35.6483525,32.8465641],[35.6484668,32.8462667],[35.6485303,32.8459902],[35.6485255,32.8458229],[35.648432,32.8455424],[35.6486665,32.8452939],[35.6487792,32.8451061],[35.64884,32.8448854],[35.6488716,32.8445125],[35.6488335,32.8441503],[35.6488512,32.8437481],[35.6488176,32.8433866],[35.6487038,32.8427964],[35.6485834,32.8423359],[35.6485154,32.8421524],[35.6484032,32.8419622],[35.6483619,32.841771],[35.6482913,32.8415702],[35.6481224,32.8409556],[35.6480211,32.840763],[35.6477873,32.8404391],[35.6476748,32.8403223],[35.6474261,32.8401125],[35.6471104,32.839929],[35.6462993,32.8393735],[35.6461348,32.8390735],[35.6459253,32.8388329],[35.6458353,32.8387051],[35.6458118,32.8386431],[35.6457853,32.8384177],[35.6457344,32.8382644],[35.6456428,32.8381162],[35.6455048,32.8379771],[35.6452904,32.8378445],[35.6450007,32.8377398],[35.6447889,32.8376432],[35.6445803,32.8375898],[35.6442769,32.8375614],[35.6441348,32.837495],[35.643968,32.8373567],[35.6437926,32.8371584],[35.6437065,32.8369495],[35.6435634,32.836723],[35.6435088,32.8365462],[35.6434347,32.836392],[35.6433203,32.8362295],[35.6431697,32.8360802],[35.643032,32.8359833],[35.6428775,32.8359048],[35.6424888,32.8357918],[35.6423322,32.8356754],[35.6420537,32.8354031],[35.6419028,32.8352994],[35.6417471,32.8352167],[35.6414861,32.8351262],[35.6408956,32.8350363],[35.6407464,32.8349748],[35.6404156,32.8347065],[35.6401792,32.8343708],[35.6400801,32.8341259],[35.6400946,32.8340001],[35.6402449,32.8337543],[35.6403593,32.8334451],[35.6406329,32.8330979],[35.6407059,32.8329396],[35.6407533,32.8327679],[35.6407818,32.8322381],[35.6407385,32.831908],[35.6406548,32.8316541],[35.6406258,32.831497],[35.6406231,32.8313958],[35.640652,32.8311785],[35.6407,32.8310471],[35.6409071,32.8308336],[35.6410009,32.8307031],[35.6410599,32.8305673],[35.6410844,32.8304263],[35.641078,32.8303045],[35.6410477,32.830181],[35.640897,32.8298714],[35.6408846,32.8296825],[35.6409082,32.8295852],[35.6409927,32.8293881],[35.6411257,32.8291402],[35.6412132,32.8290303],[35.6418131,32.8286467],[35.6419605,32.8285771],[35.6422208,32.8284836],[35.6423679,32.8284058],[35.6425468,32.8282607],[35.6426811,32.828092],[35.6427553,32.8279127],[35.6428465,32.8275417],[35.6428881,32.8274712],[35.6430533,32.8272835],[35.6431378,32.8271242],[35.6432527,32.8266486],[35.6434135,32.8261991],[35.6436093,32.8257255],[35.6436912,32.8255904],[35.6438748,32.8253527],[35.6440747,32.8251876],[35.6441861,32.8250699],[35.6443361,32.82482],[35.6444325,32.8245769],[35.6445356,32.8242403],[35.6446231,32.8236979],[35.6447736,32.8234315],[35.6448404,32.8232538],[35.6449276,32.8227435],[35.6450635,32.8214335],[35.6450852,32.8207612],[35.6450689,32.820575],[35.6450141,32.8203345],[35.6449587,32.8196942],[35.6448442,32.8191574],[35.6449171,32.8189026],[35.6450977,32.8185242],[35.6451685,32.8182589],[35.6451898,32.8178779],[35.6451571,32.8173106],[35.645039,32.8164858],[35.6448323,32.8153055],[35.6447515,32.8150526],[35.6446008,32.8147701],[35.6445275,32.8145961],[35.6445447,32.813827],[35.6444529,32.8131251],[35.6441294,32.8117761],[35.643874,32.8108888],[35.643788,32.8107094],[35.6437262,32.8105856],[35.6430246,32.8098225],[35.6428197,32.8093328],[35.6424623,32.8082816],[35.6421966,32.8073228],[35.6419927,32.8055877],[35.6417659,32.8047589],[35.6418039,32.8045496],[35.6417985,32.8044016],[35.6416487,32.8040428],[35.64159,32.8037068],[35.641295,32.8031155],[35.6411479,32.8025491],[35.6408023,32.8016374],[35.6405765,32.8011592],[35.6402463,32.8007064],[35.6400415,32.8003402],[35.6398917,32.7996479],[35.6396947,32.7990765],[35.6393739,32.7985402],[35.6392839,32.7983427],[35.6393087,32.7980419],[35.6393938,32.7978173],[35.6394592,32.7975108],[35.6396343,32.7970355],[35.6397142,32.7964105],[35.6401914,32.7951494],[35.6404556,32.794628],[35.6405379,32.7943882],[35.6405796,32.7940838],[35.6405693,32.7936821],[35.6404875,32.7931649],[35.640394,32.7928062],[35.6398134,32.7911474],[35.6393406,32.7901559],[35.6388754,32.7893914],[35.638746,32.7892686],[35.6385749,32.7891612],[35.6380898,32.7889985],[35.6377032,32.7887613],[35.6373015,32.788607],[35.6370558,32.7884604],[35.6369671,32.7883755],[35.6367574,32.7880183],[35.6365952,32.7878164],[35.6363776,32.7876464],[35.6360359,32.7874638],[35.6359253,32.7873507],[35.6358759,32.7872409],[35.6358485,32.7869372],[35.6357253,32.7865159],[35.63575,32.786124],[35.6357221,32.7858659],[35.6355271,32.785367],[35.6355194,32.7852332],[35.6355999,32.7848834],[35.6355899,32.7845477],[35.6356778,32.7842025],[35.6356615,32.7840446],[35.635579,32.7837844],[35.6356294,32.7833268],[35.6355884,32.7831252],[35.6354647,32.7828582],[35.6352661,32.7822183],[35.6352255,32.7819602],[35.6352557,32.7817753],[35.6353145,32.7816323],[35.6356567,32.7812519],[35.6357723,32.7809338],[35.6358002,32.779654],[35.6357051,32.7790715],[35.6360083,32.7787008],[35.6364784,32.7783821],[35.6369786,32.7779792],[35.6371949,32.7776933],[35.6374076,32.7772865],[35.6376777,32.7769769],[35.6378571,32.7766746],[35.6381409,32.7763449],[35.638211,32.7762025],[35.6383452,32.7757511],[35.6387595,32.7750253],[35.6389841,32.7744312],[35.6390643,32.7741144],[35.63907,32.7736745],[35.6390386,32.7732388],[35.6389548,32.7727966],[35.6388635,32.7726162],[35.6386225,32.772293],[35.6382735,32.7711462],[35.6376922,32.7696667],[35.6375721,32.7692848],[35.6375196,32.7689861],[35.6375429,32.7681973],[35.6376174,32.7676314],[35.6376033,32.7663475],[35.6374716,32.7657521],[35.6373733,32.765454],[35.6372567,32.7648663],[35.6369378,32.7640083],[35.6364231,32.7628982],[35.6360421,32.7621611],[35.6358084,32.7615958],[35.6357762,32.7610534],[35.6359116,32.760259],[35.6359119,32.7597323],[35.6357097,32.7587734],[35.6355058,32.7574797],[35.6351889,32.756409],[35.6349724,32.7554875],[35.6348403,32.7552102],[35.6347474,32.7548131],[35.6347016,32.7541958],[35.6345626,32.7534525],[35.6345145,32.753017],[35.6344446,32.7527343],[35.6344081,32.7522838],[35.6342568,32.7518937],[35.6339292,32.7507827],[35.6334511,32.749877],[35.6330659,32.7490272],[35.632418,32.7477818],[35.6322167,32.747291],[35.6318249,32.7466057],[35.6316927,32.7462973],[35.631406,32.7458927],[35.6306523,32.7444729],[35.6293022,32.7421616],[35.629041,32.7418329],[35.628889,32.7415349],[35.6285765,32.7411086],[35.6282424,32.7405596],[35.6280221,32.7403037],[35.6276787,32.739793],[35.6275019,32.7393642],[35.6270522,32.7388083],[35.626829,32.738443],[35.6264624,32.737942],[35.6257457,32.7367602],[35.6252725,32.7362019],[35.6246344,32.7353277],[35.623795,32.7343243],[35.6235464,32.7339323],[35.6227083,32.7330501],[35.6226077,32.7328264],[35.6224854,32.7326467],[35.6221244,32.7322081],[35.6214378,32.7314622],[35.6212605,32.7311353],[35.6202315,32.72962],[35.6194064,32.7287381],[35.6191906,32.7284009],[35.6189962,32.7280229],[35.6186899,32.727631],[35.6184324,32.7272213],[35.6180977,32.7265453],[35.6179344,32.7263377],[35.6176799,32.7261071],[35.6176615,32.7257375],[35.6175295,32.725412],[35.6174089,32.7252848],[35.6172552,32.7251852],[35.6170654,32.7251138],[35.6167951,32.7250595],[35.6167243,32.725008],[35.6167116,32.7249417],[35.616808,32.7247273],[35.6168457,32.7245473],[35.6168363,32.7243837],[35.6167825,32.7242282],[35.6166754,32.7240727],[35.616477,32.7238841],[35.6164258,32.7235959],[35.6163194,32.7233971],[35.6160814,32.7232004],[35.6158893,32.722901],[35.6155272,32.7226294],[35.6153398,32.7223937],[35.6151686,32.7220458],[35.614954,32.7217205],[35.6148385,32.721258],[35.6145896,32.7207897],[35.6144236,32.7205829],[35.6142882,32.7204652],[35.6137916,32.7202294],[35.613637,32.7198754],[35.6134047,32.7195462],[35.6132749,32.7192336],[35.6131087,32.7189835],[35.6129657,32.7188452],[35.6126228,32.7186591],[35.6124217,32.7185053],[35.6120345,32.7179446],[35.6117223,32.7176652],[35.6115116,32.7173747],[35.6110785,32.7170155],[35.6105687,32.7167015],[35.6101349,32.7163066],[35.6098716,32.7161777],[35.6094504,32.7160612],[35.6091043,32.7158016],[35.6084042,32.7151652],[35.6079085,32.7146156],[35.6076105,32.7141702],[35.607185,32.7138242],[35.6069327,32.7136897],[35.6067415,32.7134005],[35.606555,32.713223],[35.605821,32.7127999],[35.6055451,32.7125292],[35.6053594,32.7124133],[35.6050825,32.7123323],[35.6047133,32.7123461],[35.6046043,32.7123187],[35.6042259,32.7120188],[35.6036382,32.7117429],[35.603261,32.7114854],[35.6030681,32.7112717],[35.6028829,32.7111273],[35.6025281,32.7109276],[35.6022067,32.7107035],[35.6018481,32.7105407],[35.6015338,32.7103089],[35.6013159,32.7102329],[35.6010864,32.7102052],[35.6008757,32.7102262],[35.6006193,32.7103017],[35.6005085,32.7099991],[35.6003138,32.7097793],[35.5998379,32.7095086],[35.5995196,32.7092651],[35.5992096,32.7089192],[35.5990591,32.7087943],[35.5986967,32.7086173],[35.5981482,32.7082481],[35.597852,32.7080961],[35.5976317,32.70802],[35.5973829,32.7079813],[35.5965951,32.7079422],[35.5961699,32.7079681],[35.5957027,32.7078522],[35.5950421,32.7077693],[35.5947676,32.7075241],[35.5945989,32.7074196],[35.5938582,32.7072101],[35.5935719,32.706898],[35.5933668,32.7067569],[35.5930957,32.7066593],[35.5926902,32.706599],[35.5916627,32.7065922],[35.5913262,32.7065528],[35.5910757,32.7065774],[35.5906634,32.7064751],[35.5902119,32.7064772],[35.5897076,32.7064268],[35.5895082,32.7064493],[35.5893215,32.7065017],[35.5891225,32.7065953],[35.5888712,32.7067633],[35.5887124,32.706794],[35.5855147,32.7068301],[35.5845808,32.706739],[35.5843461,32.7067666],[35.5835544,32.706948],[35.5833853,32.7070306],[35.5832452,32.7071397],[35.5828036,32.7076865],[35.5821758,32.7079446],[35.5819502,32.7080674],[35.5814866,32.7085048],[35.5813601,32.7086716],[35.580935,32.7087831],[35.5806606,32.7089547],[35.5804785,32.7091855],[35.5803213,32.7095974],[35.5802458,32.7096478],[35.5798744,32.7097917],[35.5796608,32.7099352],[35.5794909,32.710167],[35.5794273,32.7104717],[35.57934,32.7105267],[35.5790036,32.7106464],[35.5788048,32.7107774],[35.5778976,32.7117809],[35.5777662,32.7119805],[35.5776921,32.712178],[35.577679,32.7123278],[35.5777275,32.7125386],[35.5777176,32.7126086],[35.5773763,32.7126681],[35.5771704,32.7127427],[35.5768032,32.7129856],[35.5766255,32.713149],[35.5764917,32.7133794],[35.5764375,32.7137263],[35.5763783,32.7138415],[35.5761344,32.7141299],[35.5758398,32.714413],[35.5753958,32.7149652],[35.5751848,32.7152893],[35.5748183,32.7156032],[35.5744713,32.7161053],[35.5741259,32.7165214],[35.5736344,32.7173417],[35.5733492,32.718001],[35.5730774,32.7187707],[35.5726357,32.7194454],[35.5723197,32.7201742],[35.5720788,32.7205791],[35.5717719,32.7208286],[35.571608,32.7210849],[35.5715473,32.7213321],[35.5715627,32.7218048],[35.5714977,32.7221366],[35.5712555,32.7227895],[35.5710591,32.723803],[35.5710507,32.7242199],[35.5709703,32.7245986],[35.5709795,32.7251429],[35.5709345,32.7254825],[35.571003,32.7260199],[35.5711474,32.7263032],[35.5713913,32.7266429],[35.57144,32.7267898],[35.5714747,32.7271169],[35.5715861,32.7273512],[35.5715113,32.7275642],[35.5712618,32.7278292],[35.5711232,32.7280485],[35.5708152,32.728737],[35.5706351,32.7294257],[35.5706829,32.7305826],[35.5706217,32.7309732],[35.5706289,32.7311904],[35.5706707,32.7313909],[35.5706589,32.7317874],[35.5706233,32.7320556],[35.5704607,32.7324694],[35.5703472,32.7331419],[35.5703743,32.7334481],[35.5705052,32.7338182],[35.570506,32.734011],[35.5700068,32.7351513],[35.5698719,32.7355794],[35.5697975,32.7358886],[35.5697803,32.7362319],[35.5697136,32.7365028],[35.5696753,32.7368438],[35.5696099,32.7370944],[35.5695926,32.7374439],[35.5694206,32.7378858],[35.5690912,32.7390317],[35.5690489,32.739564],[35.5689499,32.7401458],[35.568891,32.7407749],[35.5684807,32.7424143],[35.5684742,32.7426169],[35.568522,32.7429602],[35.5682467,32.7441187],[35.5680748,32.7455417],[35.5678586,32.7459745],[35.5676581,32.7466301],[35.5672912,32.7475349],[35.5670518,32.7480039],[35.5661581,32.749116],[35.5653585,32.7497748],[35.5651354,32.7500481],[35.5645322,32.7512191],[35.5641274,32.7521985],[35.5639765,32.7526758],[35.5636527,32.7531506],[35.5632086,32.7543541],[35.5630021,32.7547423],[35.5628067,32.7552274],[35.5615702,32.7548274],[35.5612115,32.7547574],[35.5609015,32.7547567],[35.5603447,32.7546622],[35.5595471,32.754318],[35.5588358,32.7542548],[35.5584051,32.7540702],[35.5580413,32.754068],[35.5576964,32.7540239],[35.5570377,32.755052],[35.5569241,32.7553516],[35.5584924,32.7558254],[35.5584749,32.7559938],[35.5586877,32.7561288],[35.5589274,32.7567081],[35.5584178,32.7570553],[35.5579936,32.7576608],[35.556568,32.7598906],[35.555897,32.7606441],[35.5547135,32.7615035],[35.5536605,32.7620897],[35.5532563,32.7621799],[35.553025,32.7626043],[35.5526835,32.7630336],[35.5521449,32.7638049],[35.5518935,32.7640568],[35.5514373,32.7642143],[35.5511601,32.7640319],[35.5510383,32.7638384],[35.5509258,32.763766],[35.550036,32.7635436],[35.5493549,32.7633048],[35.5491573,32.7630845],[35.5486472,32.7628818],[35.548487,32.7629003],[35.548182,32.7627225],[35.548194,32.7626368],[35.5480249,32.7620021],[35.5479633,32.7619166],[35.5479606,32.7616281],[35.5474855,32.7613127],[35.5467907,32.7601953],[35.5467908,32.7601063],[35.54664,32.7598367],[35.5460076,32.7602995],[35.545086,32.7610743],[35.5445443,32.7610815],[35.5439193,32.7620474],[35.5426889,32.7624909],[35.541776,32.7634452],[35.5402927,32.7645968],[35.5403724,32.7652189],[35.5382434,32.7666598],[35.5378748,32.7664451],[35.5366041,32.7656042],[35.5353185,32.7658982],[35.5351406,32.7661116],[35.5345067,32.766215],[35.533498,32.767018],[35.5324515,32.7675423],[35.5321986,32.7672175],[35.5322026,32.7671644],[35.5325395,32.7669329],[35.5324264,32.7668604],[35.5324163,32.7668275],[35.5335128,32.7650064],[35.5337152,32.7642111],[35.533718,32.7621631],[35.5331335,32.7595731],[35.5330181,32.7596109],[35.5300348,32.7614227],[35.5293554,32.762086],[35.5293868,32.7625613],[35.5301904,32.7643418],[35.5310566,32.7660006],[35.5314419,32.7665386],[35.5279929,32.7642435],[35.5278471,32.7641472],[35.5273597,32.763823],[35.527112,32.7634667],[35.5239391,32.7616801],[35.5231249,32.7610871],[35.5208967,32.7589792],[35.5195832,32.7598708],[35.5187005,32.7605665],[35.5166503,32.7590799],[35.5159719,32.7600625],[35.5156634,32.7607403],[35.5140207,32.7605224],[35.5134298,32.7602071],[35.512875,32.7598709],[35.5128565,32.7594701],[35.5125757,32.7590057],[35.5121647,32.7588363],[35.5118769,32.7586448],[35.5115777,32.7585004],[35.5119118,32.7581372],[35.5118736,32.7581014],[35.5121414,32.7579357],[35.5124636,32.7576275],[35.5128682,32.7573597],[35.5142574,32.7567391],[35.5143019,32.7567788],[35.5147108,32.756447],[35.5152295,32.756134],[35.5163003,32.7552547],[35.5169663,32.7545074],[35.5173534,32.7539327],[35.5182536,32.7531696],[35.5191446,32.7526521],[35.5198144,32.7521145],[35.5204987,32.7517002],[35.5211442,32.7511435],[35.5219089,32.750728],[35.5223813,32.7503972],[35.5233191,32.7500137],[35.5249591,32.7489516],[35.5256045,32.7487285],[35.5258962,32.7483914],[35.5265605,32.7479455],[35.526126,32.7474109],[35.5259101,32.7470864],[35.5255922,32.7465858],[35.5254749,32.7462387],[35.5250427,32.7456043],[35.5249356,32.7454776],[35.524322,32.7450018],[35.5236664,32.7443158],[35.5242361,32.7438765],[35.5239118,32.7437208],[35.52351,32.7434517],[35.5233751,32.7432169],[35.5230035,32.7429926],[35.5227273,32.7427324],[35.5226163,32.7425509],[35.5223416,32.7422747],[35.5221166,32.7421095],[35.5221013,32.7419061],[35.5219155,32.7416812],[35.5218421,32.7414849],[35.521721,32.740725],[35.521576,32.7405879],[35.5214778,32.7403751],[35.5214814,32.7402215],[35.521218,32.7397116],[35.5211865,32.7393804],[35.5210259,32.7391005],[35.5208379,32.738535],[35.5207825,32.7382356],[35.5208725,32.7380553],[35.5208986,32.7379239],[35.5207673,32.7376864],[35.5205739,32.7375164],[35.5235809,32.7369329],[35.52397,32.7372945],[35.5241047,32.7376886],[35.5244793,32.7381197],[35.524633,32.7383625],[35.5251625,32.7387686],[35.5253049,32.7389069],[35.5255821,32.7390318],[35.5258882,32.7392973],[35.5260112,32.7393325],[35.5272838,32.7400179],[35.5274863,32.7402096],[35.5280223,32.7406193],[35.528292,32.7407643],[35.528455,32.7408067],[35.5286072,32.7409125],[35.5287358,32.7409536],[35.5290116,32.7411228],[35.5294371,32.7412259],[35.5297748,32.7413668],[35.5302105,32.7416703],[35.5302595,32.7417618],[35.5309616,32.7420586],[35.5311141,32.7420971],[35.5312162,32.7421989],[35.5315421,32.7422995],[35.5325489,32.7400302],[35.5343388,32.7385534],[35.534449,32.7384686],[35.5344856,32.7384826],[35.5363151,32.7369785],[35.5379522,32.7356981],[35.5384662,32.7352547],[35.5398115,32.7341761],[35.5421377,32.7325428],[35.5421797,32.7322007],[35.5377837,32.7299392],[35.5370333,32.7297053],[35.5366384,32.7295055],[35.5364521,32.7294395],[35.5362869,32.7293041],[35.5360477,32.7291599],[35.535557,32.728925],[35.5351405,32.7286706],[35.5344264,32.7283321],[35.5343166,32.7283222],[35.5342037,32.7282092],[35.5338593,32.7280853],[35.5337108,32.7281203],[35.5334611,32.7280146],[35.5328666,32.7279231],[35.5321403,32.7275327],[35.5313548,32.7270137],[35.531164,32.72685],[35.5310451,32.726684],[35.5308658,32.7266281],[35.5298171,32.7253857],[35.5295137,32.7251878],[35.5295841,32.7251211],[35.5286667,32.7245771],[35.5279837,32.7238417],[35.5273685,32.7230819],[35.5239266,32.7213203],[35.5274067,32.7163804],[35.5276941,32.7164264],[35.5287026,32.7164912],[35.5296598,32.7164931],[35.5302553,32.7164614],[35.5318279,32.7162644],[35.5317304,32.7162117],[35.5327786,32.7159613],[35.5328869,32.71601],[35.5336025,32.7159352],[35.5335005,32.7158802],[35.5346298,32.7159716],[35.5346121,32.7160139],[35.5346696,32.7160256],[35.5346923,32.7159777],[35.535193,32.7160169],[35.5358385,32.715995],[35.5402016,32.714954],[35.54059,32.7151045],[35.5413438,32.7158873],[35.5422576,32.7164376],[35.5419418,32.7168509],[35.5422993,32.7170304],[35.5429806,32.7171995],[35.543194,32.7172069],[35.5433175,32.7170577],[35.5448636,32.7178208],[35.5456054,32.7181869],[35.5465033,32.7187376],[35.5469218,32.7187978],[35.5464535,32.7149759],[35.5459933,32.7105842],[35.5456606,32.7103823],[35.5453017,32.7104876],[35.5453021,32.7103469],[35.5395943,32.7101842],[35.5396087,32.709905],[35.5356003,32.7097994],[35.5362332,32.7042835],[35.5367485,32.7002609],[35.536463,32.6954837],[35.5361909,32.6951289],[35.5355893,32.6942401],[35.5352379,32.693957],[35.5347486,32.6934447],[35.534222,32.6932104],[35.5340742,32.6929271],[35.5333996,32.6927018],[35.5327808,32.6925267],[35.5298849,32.6919614],[35.5289982,32.6915909],[35.5279908,32.6908265],[35.5297583,32.690429],[35.5323063,32.6902886],[35.5340907,32.690294],[35.5358027,32.6906293],[35.5371637,32.6913065],[35.5377034,32.6916384],[35.5390686,32.6915398],[35.5414716,32.6921272],[35.5424394,32.6923882],[35.543075,32.6918167],[35.5429046,32.6907233],[35.5432956,32.6890087],[35.5433817,32.6883105],[35.5432519,32.6878639],[35.5428832,32.6872611],[35.5423695,32.6867203],[35.5418445,32.686064],[35.540703,32.6843217],[35.5402943,32.6833591],[35.5402434,32.6819957],[35.5490757,32.6826408],[35.5490903,32.6825906],[35.5491718,32.6825959],[35.551583,32.6828288],[35.553031,32.682938],[35.5531757,32.6830481],[35.5533413,32.6829273],[35.5538233,32.6827794],[35.5550456,32.682872],[35.5562102,32.6828777],[35.5582477,32.6829457],[35.5597303,32.682783],[35.5596801,32.6828751],[35.5600102,32.6828404],[35.5600306,32.6829512],[35.5604864,32.6830175],[35.5611707,32.6830326],[35.5614121,32.6830149],[35.5615527,32.6829464],[35.5616995,32.6827645],[35.5618728,32.6824747],[35.562014,32.6820715],[35.5621272,32.6818613],[35.5621527,32.6815208],[35.5620511,32.6812602],[35.5618558,32.6810792],[35.5609022,32.6808096],[35.5604642,32.6806396],[35.5602019,32.6804588],[35.5600335,32.680272],[35.5598378,32.679989],[35.5597494,32.6796886],[35.5596009,32.6794507],[35.559244,32.6790943],[35.5587791,32.6785738],[35.5582393,32.6780937],[35.5576745,32.6777492],[35.5573918,32.6774947],[35.5571422,32.6771437],[35.5569255,32.6765997],[35.5567478,32.675772],[35.5566346,32.6751222],[35.5566733,32.6747307],[35.5567458,32.6743958],[35.5569388,32.6740265],[35.5573196,32.6736227],[35.557814,32.6731448],[35.5581953,32.6728828],[35.5584229,32.6727857],[35.5587313,32.6727338],[35.5598087,32.6728045],[35.5600434,32.6727868],[35.5603448,32.6726781],[35.5606524,32.6724503],[35.5608997,32.6722227],[35.5611399,32.6721749],[35.5611995,32.6719353],[35.56129,32.6717295],[35.561717,32.6711438],[35.5618342,32.6709334],[35.5619225,32.6707168],[35.5619946,32.670313],[35.5620705,32.6700995],[35.5621486,32.6700144],[35.5629491,32.6695579],[35.5631423,32.6694027],[35.5632446,32.6692481],[35.5632727,32.6691333],[35.5632324,32.6687435],[35.5634117,32.668395],[35.5637695,32.6679891],[35.5638784,32.6678012],[35.5640626,32.6672035],[35.5641934,32.6665444],[35.5643342,32.6660299],[35.5644143,32.6659329],[35.5646668,32.6657342],[35.5648137,32.6654777],[35.5651387,32.6650233],[35.5652143,32.6648354],[35.5650964,32.663988],[35.5647605,32.6632342],[35.564767,32.6631063],[35.5649251,32.6625206],[35.5648633,32.6622736],[35.564664,32.6618085],[35.5646231,32.6615431],[35.5646661,32.6611698],[35.5646492,32.6608814],[35.5649127,32.6605096],[35.5650669,32.6603836],[35.565275,32.66027],[35.5662281,32.6604105],[35.5657599,32.6609686],[35.5655929,32.6612531],[35.5655346,32.6614382],[35.5660929,32.6614371],[35.5661813,32.6615118],[35.5664931,32.6615949],[35.5668255,32.6618876],[35.5672092,32.6624297],[35.568397,32.6621197],[35.5684048,32.6621558],[35.5751161,32.6605767],[35.5750576,32.6603593],[35.5746864,32.6595387],[35.5741574,32.6588443],[35.5724963,32.6576927],[35.5721613,32.6573916],[35.5718689,32.6570797],[35.5715685,32.6567075],[35.5710477,32.6557955],[35.5708138,32.6552861],[35.5706301,32.6549592],[35.5703626,32.6546731],[35.5701924,32.6545632],[35.5701891,32.6544809],[35.5703324,32.653931],[35.5700768,32.6538675],[35.5703561,32.6530568],[35.5704122,32.6526295],[35.570463,32.6517264],[35.570287,32.6510704],[35.5698537,32.6501865],[35.5698308,32.6497727],[35.5699022,32.6494026],[35.5700702,32.6488815],[35.5704411,32.6481714],[35.5705786,32.6481094],[35.5711753,32.6474432],[35.5713604,32.6471412],[35.5722644,32.6463371],[35.5723702,32.6459764],[35.5724645,32.6459468],[35.5722563,32.6456217],[35.5722913,32.6455866],[35.5722469,32.6454968],[35.5723843,32.6453959],[35.5724585,32.6452965],[35.5725745,32.6450076],[35.5727869,32.6448086],[35.5725357,32.6433305],[35.5725009,32.6426453],[35.5725209,32.6423116],[35.5724877,32.6420231],[35.5725603,32.641527],[35.5727191,32.641274],[35.5729528,32.641075],[35.5732397,32.6408848],[35.5734099,32.6407941],[35.5736121,32.6407304],[35.5740701,32.6406569],[35.5747732,32.6405827],[35.5756368,32.6406703],[35.5759994,32.6407323],[35.5767463,32.6409556],[35.577184,32.6411346],[35.5778892,32.6415653],[35.5783385,32.6419788],[35.578435,32.6421047],[35.5785748,32.6424109],[35.5786074,32.6425461],[35.5786081,32.6427264],[35.5785556,32.6429249],[35.5783444,32.6433855],[35.5782502,32.6438095],[35.578251,32.6439989],[35.5783155,32.6441249],[35.5785403,32.6443497],[35.57885,32.6445021],[35.5795861,32.6446802],[35.5800873,32.6447418],[35.5804071,32.6447589],[35.5809505,32.6447212],[35.5820687,32.6445195],[35.5830802,32.644264],[35.5832184,32.6442004],[35.583687,32.6441088],[35.5843893,32.6438362],[35.584538,32.6437366],[35.5848882,32.6433748],[35.5850153,32.6431851],[35.5852899,32.6425981],[35.5855015,32.6422187],[35.5856805,32.6417042],[35.5857653,32.6416138],[35.5859144,32.6415683],[35.5862661,32.6415762],[35.5864688,32.6416207],[35.5864903,32.6416657],[35.5865651,32.6417106],[35.5865761,32.6418007],[35.5866938,32.6418995],[35.5869624,32.6424127],[35.5870158,32.6424486],[35.5871016,32.6425746],[35.5875105,32.6434841],[35.5876928,32.643736],[35.588377,32.6442479],[35.588847,32.6444809],[35.589338,32.6446507],[35.5897647,32.6447486],[35.590405,32.644945],[35.5908106,32.645088],[35.5911737,32.6452492],[35.5914419,32.6456542],[35.5916684,32.6462666],[35.5917452,32.6467894],[35.5917159,32.6474026],[35.5916635,32.6476102],[35.5914418,32.6481068],[35.591102,32.6483874],[35.5907402,32.6485238],[35.5904318,32.6487051],[35.590315,32.6488046],[35.5901135,32.6490307],[35.5899124,32.6493559],[35.5897529,32.6494556],[35.5896787,32.649537],[35.5895297,32.6496005],[35.5893281,32.6498086],[35.589286,32.6499439],[35.5893292,32.650061],[35.5897034,32.6503304],[35.5898003,32.6505555],[35.590025,32.6507622],[35.5901639,32.650834],[35.5902492,32.6508427],[35.5904415,32.6509593],[35.5905588,32.650959],[35.5910077,32.6512461],[35.5911891,32.6512907],[35.5914453,32.6513981],[35.5919369,32.6516851],[35.592076,32.6518109],[35.592194,32.6519819],[35.5922481,32.6521801],[35.5928897,32.652647],[35.5934988,32.6530148],[35.5937123,32.6530953],[35.5940109,32.6531124],[35.5946287,32.6530294],[35.5953534,32.6530091],[35.5954599,32.6529817],[35.5956725,32.6528458],[35.5958103,32.652683],[35.5959577,32.6522588],[35.5960317,32.6521233],[35.5962752,32.6517258],[35.5966461,32.6512467],[35.5967631,32.6511922],[35.5972209,32.6510645],[35.5976149,32.6509912],[35.597956,32.6509811],[35.5985744,32.6510242],[35.5987131,32.6510599],[35.598916,32.6511584],[35.5994293,32.6515355],[35.5998028,32.6516245],[35.6002289,32.6515871],[35.6009419,32.6513324],[35.601453,32.6512045],[35.6019858,32.6511668],[35.6025188,32.6511831],[35.6048544,32.6515003],[35.6050037,32.6514998],[35.6051953,32.6514631],[35.605429,32.6512821],[35.6055784,32.6513086],[35.6056959,32.6513624],[35.606049,32.6516768],[35.606221,32.6520009],[35.6065659,32.6528564],[35.6068703,32.654181],[35.6070575,32.6555239],[35.6070198,32.6566151],[35.6070483,32.6582201],[35.607029,32.658671],[35.6068518,32.6595643],[35.6067151,32.6599975],[35.6065778,32.6602865],[35.6061856,32.6607747],[35.6055279,32.6614802],[35.6044449,32.6624665],[35.6040947,32.6628102],[35.6036067,32.6633528],[35.6034155,32.6635067],[35.6026927,32.6639689],[35.602054,32.6641783],[35.6018089,32.6641881],[35.6015428,32.6642881],[35.6005958,32.6646879],[35.6001599,32.6649417],[35.5999687,32.6651137],[35.5995453,32.6658003],[35.5994179,32.6659179],[35.5992479,32.6660267],[35.5990456,32.6660994],[35.5989712,32.6661538],[35.598876,32.6663164],[35.5986871,32.6669843],[35.598315,32.6672289],[35.5981775,32.6674638],[35.5981674,32.6676081],[35.5982,32.6677432],[35.5985755,32.6682741],[35.5988756,32.6686428],[35.5991755,32.6689575],[35.599838,32.6693251],[35.6000089,32.6693787],[35.6003187,32.66954],[35.6012369,32.6698437],[35.6030055,32.6696036],[35.6032081,32.669594],[35.6034854,32.6696201],[35.6037308,32.6696735],[35.6044356,32.6699327],[35.604692,32.6700581],[35.6051947,32.6704352],[35.605526,32.6706145],[35.6055689,32.6706595],[35.6063352,32.672749],[35.606529,32.6731722],[35.6068189,32.6736311],[35.6071762,32.6748653],[35.6072311,32.6752078],[35.6073815,32.6754778],[35.6079702,32.6759899],[35.6087831,32.6765644],[35.6123742,32.6785005],[35.612876,32.6786521],[35.6139007,32.6788923],[35.6144235,32.6789807],[35.6149359,32.6791233],[35.6160688,32.6797057],[35.6166892,32.6801365],[35.6169563,32.6802709],[35.6173941,32.6804137],[35.6176713,32.6804128],[35.6178524,32.6803761],[35.6183523,32.680095],[35.6189257,32.6795971],[35.6192225,32.6792264],[35.6197834,32.6783229],[35.6199108,32.6782052],[35.6205706,32.6779235],[35.6210602,32.6777506],[35.62122,32.677714],[35.6218381,32.6776578],[35.6220828,32.6775578],[35.622445,32.6774754],[35.6231276,32.6775453],[35.6243655,32.6777756],[35.6251135,32.6781428],[35.6256154,32.6783034],[35.6262665,32.6784545],[35.62695,32.6786957],[35.6277312,32.6793062],[35.6287712,32.680529],[35.6295954,32.6812025],[35.629724,32.6813554],[35.629779,32.6816979],[35.6299401,32.6819588],[35.6308092,32.683101],[35.6314286,32.6836553],[35.6316206,32.6838726],[35.6322965,32.6845995],[35.6325272,32.6848343],[35.6332138,32.6855025],[35.6334123,32.685656],[35.6336617,32.6858321],[35.6340104,32.6860172],[35.634453,32.6862271],[35.6346649,32.6862587],[35.6348205,32.6862452],[35.6350055,32.6861752],[35.6353033,32.6858727],[35.6356788,32.6854754],[35.6359255,32.6852338],[35.6363493,32.6848433],[35.637221,32.6840893],[35.6374946,32.6838951],[35.6378701,32.6836694],[35.6385568,32.6832788],[35.6392327,32.6828973],[35.6398711,32.68257],[35.6402734,32.6823532],[35.6405926,32.6821929],[35.6418881,32.6816263],[35.6420732,32.6815428],[35.6422126,32.6814209],[35.6424138,32.681089],[35.6428644,32.6802266],[35.6429744,32.6798789],[35.6430361,32.6796464],[35.6430548,32.6794613],[35.6430361,32.6790955],[35.6430468,32.678863],[35.6431353,32.6786553],[35.643256,32.6784702],[35.6433778,32.6781978],[35.6435459,32.6779903],[35.6437814,32.6777863],[35.644186,32.6776891],[35.6446807,32.6775572],[35.6449191,32.6775346],[35.6452569,32.6775614],[35.6456865,32.6776205],[35.645924,32.6777198],[35.6462042,32.6778208],[35.646516,32.6779662],[35.6470352,32.6782015],[35.6477514,32.678653],[35.6488296,32.6794184],[35.6494385,32.6798699],[35.6499937,32.6802785],[35.6505731,32.6808271],[35.6509593,32.6812267],[35.6516433,32.6820643],[35.6518015,32.6822426],[35.6522173,32.6826603],[35.6525445,32.6830147],[35.6529656,32.6834391],[35.6534699,32.6838274],[35.6537327,32.6840577],[35.6540452,32.6843252],[35.6542759,32.6845047],[35.6543979,32.6845803],[35.6545722,32.6846604],[35.6552267,32.6849426],[35.6556076,32.6851052],[35.6561252,32.6852496],[35.6564096,32.6852677],[35.6567502,32.6852451],[35.6574315,32.6851548],[35.6582925,32.6850013],[35.658617,32.6849381],[35.6587753,32.6848884],[35.658951,32.6848004],[35.6590328,32.6846988],[35.6590998,32.6845543],[35.6592178,32.6843128],[35.6594244,32.683999],[35.6596899,32.68378],[35.6602049,32.6834549],[35.6606796,32.683175],[35.6609827,32.6829537],[35.6612349,32.6827212],[35.6616962,32.6821907],[35.6618249,32.6820011],[35.6619698,32.68179],[35.6620462,32.6816737],[35.6621039,32.681571],[35.6621857,32.6813554],[35.6621978,32.6812583],[35.6622139,32.6811454],[35.6622447,32.6810427],[35.6622796,32.68094],[35.6623748,32.6807797],[35.6625277,32.6805822],[35.6626672,32.6804478],[35.6629129,32.6802754],[35.6635678,32.679954],[35.6643107,32.6801421],[35.6648912,32.6803691],[35.6653395,32.6806073],[35.6656309,32.6807411],[35.665954,32.680937],[35.666405,32.6813451],[35.6670752,32.6818097],[35.6676082,32.6823216],[35.6679075,32.6825775],[35.6680092,32.6826695],[35.6681013,32.6827799],[35.6681469,32.6829041],[35.6682435,32.6830756],[35.668391,32.6832698],[35.6686297,32.6834843],[35.6688496,32.6836333],[35.6691125,32.6838206],[35.6693915,32.6839696],[35.669724,32.6841231],[35.6700513,32.6842721],[35.6702498,32.6843895],[35.6704992,32.6845634],[35.6706923,32.6846627],[35.6709337,32.6847101],[35.6712234,32.6847123],[35.6715775,32.6846762],[35.6717598,32.6846401],[35.6719945,32.6845724],[35.6722279,32.6844866],[35.6723982,32.6844358],[35.6725752,32.6843884],[35.6732085,32.6843723],[35.673608,32.6844818],[35.674023,32.6846373],[35.6745165,32.6847881],[35.6748444,32.6850622],[35.6749115,32.6851497],[35.6749678,32.6852507],[35.6750321,32.6853354],[35.6750955,32.6854031],[35.6751272,32.6854538],[35.675149,32.6855002],[35.6751507,32.6855881],[35.6751524,32.6856549],[35.6751359,32.6857342],[35.6750823,32.685981],[35.6749906,32.6862921],[35.67408,32.6879134],[35.6733879,32.6889992],[35.6729051,32.6897171],[35.6719912,32.6911829],[35.6715256,32.6908799],[35.6714724,32.690932],[35.6710824,32.690957],[35.6703586,32.6905629],[35.669024,32.6896476],[35.6680923,32.6893974],[35.6676374,32.6892475],[35.6671,32.6890212],[35.6665698,32.6887453],[35.6660981,32.6887087],[35.6659904,32.6886297],[35.6658852,32.6884661],[35.6657144,32.6883568],[35.6656223,32.6883273],[35.6653673,32.6883158],[35.665171,32.6882331],[35.6651213,32.6881719],[35.6650738,32.6880007],[35.6649635,32.6878033],[35.6647947,32.6876315],[35.6645738,32.6875066],[35.6644368,32.6874959],[35.6640297,32.68753],[35.663873,32.6875075],[35.6630126,32.6872954],[35.6627224,32.6871877],[35.6622336,32.6870519],[35.6615108,32.6869745],[35.6613822,32.6869908],[35.6612088,32.6870805],[35.6609731,32.6874003],[35.6607532,32.687462],[35.6605358,32.6873771],[35.6604489,32.6873808],[35.66031,32.6874506],[35.6601354,32.6876],[35.6599882,32.6876107],[35.659843,32.6875577],[35.6597961,32.6875049],[35.6596419,32.6870602],[35.6595356,32.6868403],[35.6593281,32.686566],[35.6591554,32.6864471],[35.6589409,32.6864209],[35.6585859,32.6864329],[35.6580774,32.6865288],[35.6573442,32.6863725],[35.6568516,32.6863388],[35.6559187,32.6864295],[35.6558435,32.686347],[35.655709,32.6861096],[35.6555485,32.6859924],[35.6554557,32.6859663],[35.6553552,32.6859542],[35.6549303,32.6860166],[35.6546537,32.6860052],[35.6543014,32.6859163],[35.6539345,32.6857423],[35.6533029,32.6856195],[35.6528891,32.6855911],[35.6526497,32.685601],[35.6525508,32.6855782],[35.6524623,32.6855357],[35.6523774,32.6854137],[35.6523719,32.684977],[35.6522867,32.6847383],[35.6521245,32.684576],[35.651727,32.6842793],[35.651571,32.6840995],[35.6514159,32.6838121],[35.6512658,32.6836148],[35.6507435,32.6831664],[35.6503156,32.6826184],[35.6502385,32.6825714],[35.649909,32.6824677],[35.6492661,32.6823088],[35.648869,32.682149],[35.6486663,32.6821334],[35.6481229,32.6822272],[35.6474966,32.682261],[35.6471103,32.6823294],[35.6467596,32.6823239],[35.6465728,32.6823493],[35.646037,32.6824831],[35.6458691,32.6825586],[35.6454156,32.68266],[35.6451888,32.6827425],[35.6446656,32.6829979],[35.643979,32.6831976],[35.6438688,32.6832481],[35.6436329,32.6834361],[35.6432393,32.6838567],[35.642962,32.6842849],[35.6428583,32.6846088],[35.642725,32.6847473],[35.6424307,32.6849039],[35.6419169,32.6849902],[35.6415454,32.6851498],[35.6407855,32.685729],[35.6393991,32.6868796],[35.6376991,32.6876018],[35.6356168,32.6878169],[35.6350854,32.6918539],[35.6384618,32.7012358],[35.6376407,32.7052118],[35.6416597,32.7067832],[35.6446593,32.7080632],[35.649195,32.7135442],[35.6498312,32.714606],[35.6496233,32.7157254],[35.6497779,32.7178698],[35.6509757,32.7209077],[35.6508365,32.7222263],[35.6498989,32.7240742],[35.6500169,32.7264723],[35.6515985,32.7283704],[35.6522383,32.7308783],[35.6520765,32.733429],[35.6518678,32.7338028],[35.6521007,32.7342415],[35.6528994,32.7362743],[35.6538168,32.7376128],[35.6548098,32.7393276],[35.6550995,32.7411175],[35.6551144,32.7414038],[35.6558813,32.7431593],[35.657234,32.7444084],[35.6555182,32.7540047],[35.6618117,32.7730173],[35.6624478,32.7771955],[35.6596478,32.7829506],[35.659544,32.7832159],[35.6592063,32.7838657],[35.6548462,32.7928489],[35.6549714,32.7952055],[35.6556746,32.8084446],[35.6440391,32.8106611],[35.6443677,32.8116017],[35.64468,32.8126488],[35.6447856,32.8133658],[35.6448073,32.8141739],[35.6448653,32.8144233],[35.6451863,32.8153447],[35.6453493,32.8168015],[35.6454815,32.818561],[35.6453373,32.8191222],[35.6454501,32.8199114],[35.6454651,32.8217276],[35.6453311,32.8228056],[35.6446738,32.8258421],[35.6444642,32.8261026],[35.6443387,32.8264091],[35.6441681,32.8270702],[35.643356,32.8280677],[35.6433852,32.8285054],[35.6426483,32.8298228],[35.6426764,32.8303254],[35.6425433,32.8319596],[35.6423573,32.8325948],[35.6421664,32.8329928],[35.6418555,32.8333089],[35.6415256,32.8335856],[35.6413752,32.8338837],[35.6413505,32.8341109],[35.6421991,32.8344629],[35.6424404,32.8344841],[35.6432977,32.8342241],[35.6435947,32.8342524],[35.6442195,32.8345122],[35.6445962,32.835026],[35.6450415,32.835695],[35.6451879,32.8362772],[35.6454364,32.8365531],[35.6458748,32.8367104],[35.6465569,32.8368117],[35.6469317,32.8369873],[35.647385,32.8374586],[35.6477325,32.8379758],[35.6480988,32.8386051],[35.6486453,32.8388962],[35.6490978,32.8393139],[35.6493905,32.8397056],[35.6495797,32.8403057],[35.6497413,32.8412108],[35.649802,32.8420987],[35.6498111,32.8435256],[35.6497035,32.844963],[35.6495556,32.8461413],[35.6490678,32.8489242],[35.648634,32.8506344],[35.6480228,32.8527893],[35.6476534,32.8537622],[35.6471906,32.8549157],[35.6468085,32.8557539],[35.6463994,32.8565263],[35.6457648,32.8575739],[35.6446805,32.8591822],[35.6431222,32.8612113],[35.6430944,32.8622619],[35.6434399,32.8626354],[35.6438362,32.8632106],[35.6440566,32.8637559],[35.6440513,32.8641419],[35.6432629,32.8660049],[35.6427134,32.8670511],[35.6411096,32.8688172],[35.6404518,32.8697212],[35.6385611,32.8724672],[35.6377251,32.8737127],[35.6367748,32.8750324],[35.6358862,32.8761902],[35.6347497,32.8774711],[35.6325012,32.8795752],[35.6301781,32.8815201],[35.6299377,32.8818365],[35.6297688,32.883145],[35.6296202,32.8839542],[35.6283022,32.8848553],[35.6275823,32.8855312],[35.6254428,32.8878495],[35.6250572,32.8884544],[35.6238357,32.889656],[35.6223295,32.8908281],[35.621796,32.8915157],[35.6200204,32.8924391],[35.6187734,32.892951],[35.618418,32.8934391],[35.6173285,32.8939431],[35.6157626,32.8946155],[35.6146381,32.8949928],[35.6140005,32.8951792],[35.6133258,32.8952631],[35.6138045,32.896401],[35.6139837,32.8973833],[35.6137602,32.8979893],[35.614055,32.898003],[35.614624,32.8993423],[35.6139717,32.9002631],[35.6137549,32.9004661],[35.6136094,32.9005365],[35.6142408,32.9013656],[35.6147499,32.9018052],[35.6163662,32.9027027],[35.6172542,32.9040591],[35.6167002,32.9045703],[35.6166879,32.9047],[35.6167857,32.9051099],[35.6171227,32.9051697],[35.6175192,32.9050962],[35.6183,32.9050999],[35.61904,32.9048061],[35.619425,32.9048572],[35.6197656,32.9050353],[35.6199775,32.9053428],[35.619944,32.9055069],[35.6199622,32.9055187],[35.6203717,32.905293],[35.6204768,32.9052949],[35.6211393,32.9049338],[35.6215616,32.9049138],[35.6221646,32.9047156],[35.6227749,32.9049407],[35.6228633,32.9053022],[35.6234102,32.905825],[35.6234171,32.9059084],[35.6235197,32.9059718],[35.6236623,32.9059465],[35.6243099,32.9060367],[35.6243436,32.9062339],[35.6246544,32.9063636],[35.6249461,32.9067418],[35.6251267,32.9072484],[35.625279,32.9074942],[35.6246508,32.9082222],[35.6235847,32.9081412],[35.6234708,32.9081591],[35.6234092,32.9085087],[35.623529,32.9086227],[35.6243023,32.9085558],[35.6247009,32.9086711],[35.6247939,32.9087503],[35.6251623,32.9088409],[35.6255666,32.9088283],[35.6258033,32.9098154],[35.6253233,32.91007],[35.625359,32.9102074],[35.6258838,32.9102051],[35.62614,32.910442],[35.6263465,32.9105315],[35.6269819,32.91093],[35.6270156,32.9115183],[35.6269846,32.9116666],[35.627314,32.9118464],[35.6271802,32.9122678],[35.627172,32.9125225],[35.6267301,32.9128825],[35.6263564,32.9130009],[35.6258617,32.9132945],[35.6258608,32.9134901],[35.6258247,32.9134936],[35.6257877,32.9135833],[35.6257735,32.9138263],[35.6253743,32.9139645],[35.6241488,32.9141868],[35.6241358,32.9142544],[35.6241772,32.9142577],[35.62418,32.9143129],[35.624132,32.9143074],[35.6241742,32.9163045],[35.6280799,32.9374469],[35.6284961,32.9474],[35.6289323,32.956617],[35.6302626,32.9588121],[35.6298847,32.959115],[35.6293467,32.9593367],[35.6289167,32.9596937],[35.6286476,32.9597949],[35.6282388,32.9598557],[35.6280714,32.9597955],[35.6268411,32.9600757],[35.6264091,32.960067],[35.6248846,32.9595839],[35.6250202,32.959348],[35.625079,32.9589766],[35.6250308,32.9588111],[35.6250271,32.9586557],[35.6249074,32.9582898],[35.6248463,32.9581929],[35.6246908,32.957774],[35.6247324,32.9577543],[35.6247158,32.9575049],[35.6247428,32.9574879],[35.6247664,32.9572115],[35.6249179,32.9571394],[35.6250821,32.9568528],[35.6250526,32.9567433],[35.6252283,32.9561937],[35.6251315,32.9557298],[35.6251116,32.9552233],[35.624973,32.9550572],[35.6251069,32.9547186],[35.6251145,32.9545436],[35.6252727,32.9544972],[35.6257066,32.9541046],[35.6259561,32.9537469],[35.6261652,32.9535438],[35.626139,32.953477],[35.6261673,32.9534328],[35.6261456,32.9533142],[35.6256834,32.9525069],[35.6257146,32.9524733],[35.6254944,32.951675],[35.6256019,32.9515563],[35.6256324,32.9513863],[35.6259513,32.9505314],[35.6259973,32.9502187],[35.6258157,32.9498982],[35.6258219,32.9495905],[35.6256679,32.9492448],[35.6256225,32.9492492],[35.6257135,32.9490859],[35.6257393,32.9489607],[35.6257895,32.9488991],[35.6258046,32.9487125],[35.6257353,32.9485328],[35.6257419,32.9483266],[35.626287,32.9477109],[35.6263333,32.9475697],[35.6263261,32.9474628],[35.6255303,32.9465057],[35.6254057,32.9462546],[35.6252619,32.9460493],[35.6252271,32.9455798],[35.625291,32.9454407],[35.6252299,32.9448634],[35.6251411,32.9446018],[35.6249712,32.944315],[35.6249696,32.9441439],[35.6248262,32.9438803],[35.6246159,32.9432738],[35.6246799,32.9428796],[35.624968,32.9423913],[35.6250073,32.9420865],[35.6249812,32.9418647],[35.6248214,32.9415684],[35.6247134,32.9414479],[35.6246513,32.9411412],[35.6243113,32.9404475],[35.6243525,32.9403229],[35.6240017,32.9405099],[35.6237768,32.9406768],[35.6231244,32.9407896],[35.6227634,32.9409433],[35.6224294,32.9409811],[35.6217948,32.9406693],[35.6212706,32.9403597],[35.6201107,32.9400534],[35.6197831,32.9399891],[35.6190312,32.9403738],[35.6187709,32.94047],[35.6187983,32.9405439],[35.618319,32.9407109],[35.6176208,32.9407029],[35.6174272,32.9406454],[35.6172014,32.940706],[35.6167995,32.9407427],[35.6163848,32.9405514],[35.6161614,32.9404778],[35.6157477,32.9407851],[35.6154416,32.9411106],[35.615303,32.9411878],[35.6151735,32.9412132],[35.6150642,32.9412859],[35.6149751,32.9414058],[35.6144821,32.9416545],[35.6143915,32.9414632],[35.614417,32.9412545],[35.6151056,32.9402679],[35.615152,32.9400545],[35.6144862,32.9381952],[35.6141849,32.9375882],[35.6135991,32.9365898],[35.6135201,32.9363589],[35.6135129,32.9361601],[35.6135639,32.9359467],[35.6141561,32.9347209],[35.6141787,32.9344751],[35.6141377,32.9341994],[35.614043,32.9339122],[35.6126339,32.9315029],[35.6124624,32.9311524],[35.6123791,32.9309286],[35.6121985,32.9302142],[35.6116634,32.9277616],[35.6114969,32.9271061],[35.6113412,32.9267318],[35.6108761,32.9258661],[35.6106861,32.925652],[35.6105926,32.9255467],[35.6103913,32.9253937],[35.6101577,32.9252607],[35.6097658,32.9251204],[35.6093422,32.9250584],[35.6081544,32.924998],[35.6078419,32.9249443],[35.6077613,32.9249814],[35.6076069,32.9250523],[35.6064353,32.9254401],[35.6061141,32.9254721],[35.6057971,32.9254214],[35.6056333,32.9253349],[35.6054994,32.9252099],[35.605197,32.924586],[35.6050339,32.9243919],[35.6048321,32.9242287],[35.6045894,32.9241408],[35.6032617,32.9238099],[35.6015544,32.9232902],[35.6008964,32.9229957],[35.6000501,32.9225513],[35.5992013,32.922145],[35.5989183,32.9219898],[35.5985183,32.9217049],[35.5980746,32.9212802],[35.5978062,32.9209805],[35.5976087,32.9206939],[35.597461,32.9203007],[35.5972828,32.9195389],[35.5971879,32.9192777],[35.5970611,32.9190664],[35.5966123,32.9184831],[35.5964414,32.9183097],[35.5962681,32.9181893],[35.5951929,32.917938],[35.594736,32.9178984],[35.5942647,32.9179428],[35.5935522,32.9180509],[35.5902166,32.9186688],[35.5899387,32.9186972],[35.5896136,32.9186399],[35.5888951,32.918173],[35.5882794,32.9178532],[35.5863585,32.9169604],[35.5861943,32.9168533],[35.5860996,32.9166728],[35.5860476,32.9157595],[35.5859445,32.9151942],[35.5859755,32.9149838],[35.5860386,32.9148662],[35.5861891,32.9147009],[35.5865082,32.9144178],[35.5869368,32.9141563],[35.5874933,32.9139705],[35.5877463,32.9139151],[35.5878507,32.9138892],[35.5879219,32.9138716],[35.5881621,32.9137445],[35.5886035,32.9127125],[35.5886982,32.9125456],[35.588651,32.9124603],[35.5886606,32.9120487],[35.5850772,32.9100266],[35.5851709,32.9096459],[35.5843026,32.9073172],[35.5834535,32.9054792],[35.5817893,32.9043723],[35.5795287,32.902299],[35.5773638,32.8999756],[35.5775858,32.8990749],[35.5773318,32.8989833],[35.5766071,32.8984157],[35.5760492,32.8976048],[35.575703,32.8971715],[35.5734991,32.8974938],[35.573018,32.8971146],[35.5713451,32.896194],[35.570639,32.8966631],[35.570571,32.8968349],[35.5705568,32.8971132],[35.5702995,32.8973344],[35.5702698,32.8974512],[35.5703408,32.8975318],[35.5702816,32.8978043],[35.5702058,32.8979548],[35.5696236,32.89846],[35.5696119,32.8987715],[35.5694667,32.8991586],[35.5690964,32.8993974],[35.5690434,32.8995319],[35.5672181,32.8996456],[35.565127,32.8999582],[35.564755,32.8996563],[35.5609504,32.8991082],[35.5593866,32.8969624],[35.5564053,32.8965649],[35.5530963,32.8956562],[35.5528337,32.8951685],[35.5524081,32.8945089],[35.5514435,32.8944441],[35.5490165,32.8938414],[35.5487531,32.8935435],[35.5484665,32.8934124],[35.5463669,32.8926628],[35.546032,32.8925195],[35.5458387,32.8929277],[35.5431084,32.8918649],[35.5422324,32.8921155],[35.5391228,32.8933095],[35.5389905,32.8905513],[35.5392326,32.8888707],[35.53907,32.888586],[35.5378463,32.8871583],[35.5377204,32.8867865],[35.5376658,32.8866959],[35.5373431,32.8868332],[35.5371297,32.8868444],[35.5367249,32.8867449],[35.5367238,32.8856677],[35.5365233,32.8852776],[35.5362778,32.885262],[35.5362605,32.8850297],[35.5361884,32.8849375],[35.5360331,32.8848694],[35.5358501,32.8849546],[35.53583,32.8848898],[35.5339199,32.8829706],[35.5336999,32.8831163],[35.5328113,32.8822419],[35.5322861,32.8817758],[35.531725,32.8813546],[35.5298481,32.880285],[35.5295368,32.8797346],[35.5291179,32.8794629],[35.528875,32.8783725],[35.5287654,32.8782635],[35.5282048,32.8778671],[35.5279085,32.8775466],[35.5278609,32.8771365],[35.5271624,32.8769365],[35.5265929,32.8768963],[35.5265865,32.8773888],[35.5267023,32.8778642],[35.5268519,32.878185],[35.526819,32.878548],[35.5258334,32.878305],[35.5241359,32.8780291],[35.5231676,32.8778276],[35.5226071,32.8776286],[35.5218568,32.8774156],[35.52129,32.8773546],[35.5210954,32.8773996],[35.5213336,32.877649],[35.5219481,32.8780448],[35.5222781,32.8781861],[35.5224271,32.8786792],[35.5223484,32.8793134],[35.5218753,32.8805672],[35.5251905,32.8812764],[35.5253159,32.8822432],[35.5254628,32.8828024],[35.5249726,32.8841359],[35.523376,32.8861034],[35.5227847,32.8858874],[35.521453,32.885401],[35.5196489,32.8858074],[35.5189821,32.8860368],[35.5173136,32.8867217],[35.5154605,32.8878422],[35.5134449,32.8872412],[35.5131137,32.8870027],[35.5129335,32.886838],[35.5127365,32.8865266],[35.5126481,32.8861277],[35.5125165,32.8858436],[35.5119859,32.885164],[35.511707,32.8848748],[35.5115544,32.8848155],[35.5099967,32.8844156],[35.50979,32.8844391],[35.5093986,32.8845639],[35.5088036,32.8847993],[35.5086896,32.884873],[35.5085813,32.8850109],[35.5085604,32.8852724],[35.5085987,32.8853365],[35.5089098,32.8855973],[35.5090736,32.8857712],[35.5091121,32.885895],[35.5092833,32.8866454],[35.5092673,32.886751],[35.5092133,32.886852],[35.5090777,32.8869808],[35.5088709,32.8870042],[35.5081524,32.8869463],[35.5079836,32.8869055],[35.5072424,32.8866045],[35.5066368,32.8861426],[35.5063942,32.8860137],[35.5060237,32.8858816],[35.505757,32.8858409],[35.5053597,32.8858235],[35.5053766,32.8860705],[35.504344,32.8860343],[35.5039856,32.8864488],[35.5004855,32.8870851],[35.4999113,32.8872938],[35.4995785,32.8874484],[35.4991328,32.8880835],[35.4980108,32.8893541],[35.4959714,32.8921073],[35.4956863,32.8921897],[35.4947225,32.8925374],[35.4946209,32.8925935],[35.4933673,32.8929734],[35.4906358,32.893027],[35.4899269,32.8930867],[35.4897268,32.8933576],[35.4881842,32.8945023],[35.4875012,32.8947017],[35.485894,32.8957169],[35.4857649,32.8964966],[35.4854493,32.8967898],[35.4832973,32.8977943],[35.4828578,32.8978889],[35.4802641,32.8986134],[35.4789293,32.8989372],[35.4791621,32.8986027],[35.4793741,32.8981933],[35.4795902,32.8976729],[35.4796954,32.8972427],[35.4803549,32.8916519],[35.4804157,32.8904244],[35.48026,32.8894227],[35.4802529,32.8893934],[35.4798582,32.8891855],[35.4794574,32.8891188],[35.4786541,32.8894464],[35.4784866,32.8895725],[35.4780528,32.8900524],[35.47795,32.8902081],[35.4779209,32.890345],[35.4779652,32.8906549],[35.4785686,32.8913794],[35.47858,32.8914544],[35.4785619,32.8915858],[35.4785064,32.8916579],[35.4780547,32.8919842],[35.4779138,32.8920471],[35.477732,32.89206],[35.4763068,32.8917065],[35.476168,32.8917191],[35.4760951,32.8917624],[35.4760537,32.8918631],[35.4761426,32.8929261],[35.4761321,32.8930975],[35.4759796,32.893412],[35.4758594,32.8935416],[35.4756916,32.893659],[35.475407,32.8937921],[35.4750564,32.8938544],[35.4747283,32.8938326],[35.4743149,32.8936764],[35.4737363,32.8932526],[35.4734765,32.8931176],[35.4732936,32.8930749],[35.4724209,32.8929665],[35.4720847,32.8929456],[35.4718912,32.8930015],[35.4711363,32.8935206],[35.4709795,32.8936041],[35.468683,32.894567],[35.4684285,32.8946507],[35.467892,32.8922734]]]]}}]}